[{"tel": ["01 40 09 04 45 (g\u00e9r\u00e9 par Safe)"], "name": "Distributeur-Echangeur", "locality": ["Paris"], "streetAdress": [], "link": [], "mail": [], "postalCode": ["75001"], "position": ["maps.google.com?q=48.86348,2.34716\""], "type": ["AUTOMATE-DISTRIBOX"]},
{"tel": ["01 40 09 04 45 (g\u00e9r\u00e9 par Safe)"], "name": "Distributeur-Echangeur", "locality": ["Paris"], "streetAdress": [], "link": [], "mail": [], "postalCode": ["75002"], "position": ["maps.google.com?q=48.8646,2.35119\""], "type": ["AUTOMATE-DISTRIBOX"]},
{"tel": ["01 40 09 04 45 (g\u00e9r\u00e9 par Safe)"], "name": "Distributeur", "locality": ["Paris"], "streetAdress": [], "link": [], "mail": [], "postalCode": ["75007"], "position": ["maps.google.com?q=48.84736,2.31846\""], "type": ["AUTOMATE-DISTRIBOX"]},
{"tel": ["01 40 09 04 45 (g\u00e9r\u00e9 par Safe)"], "name": "Distributeur-Echangeur", "locality": ["Paris"], "streetAdress": [], "link": [], "mail": [], "postalCode": ["75009"], "position": ["maps.google.com?q=48.87691,2.3267\""], "type": ["AUTOMATE-DISTRIBOX"]},
{"tel": ["01 40 09 04 45 (g\u00e9r\u00e9 par Safe)"], "name": "Distributeur-Echangeur", "locality": ["Paris"], "streetAdress": [], "link": [], "mail": [], "postalCode": ["75010"], "position": ["maps.google.com?q=48.88242,2.35458\""], "type": ["AUTOMATE-DISTRIBOX"]},
{"tel": ["01 40 09 04 45 (g\u00e9r\u00e9 par Safe)"], "name": "Distributeur-Echangeur", "locality": ["Paris"], "streetAdress": [], "link": [], "mail": [], "postalCode": ["75010"], "position": ["maps.google.com?q=48.86885,2.35597\""], "type": ["AUTOMATE-DISTRIBOX"]},
{"tel": ["01 40 09 04 45 (g\u00e9r\u00e9 par Safe)"], "name": "Distributeur-Echangeur", "locality": ["Paris"], "streetAdress": [], "link": [], "mail": [], "postalCode": ["75010"], "position": ["maps.google.com?q=48.88396,2.35234\""], "type": ["AUTOMATE-DISTRIBOX"]},
{"tel": ["01 40 09 04 45 (g\u00e9r\u00e9 par Safe)"], "name": "Distributeur-Echangeur", "locality": ["Paris"], "streetAdress": [], "link": [], "mail": [], "postalCode": ["75010"], "position": ["maps.google.com?q=48.87754,2.34982\""], "type": ["AUTOMATE-DISTRIBOX"]},
{"tel": ["01 40 09 04 45 (g\u00e9r\u00e9 par Safe)"], "name": "Distributeur-Echangeur", "locality": ["Paris"], "streetAdress": [], "link": [], "mail": [], "postalCode": ["75010"], "position": ["maps.google.com?q=48.87765,2.36144\""], "type": ["AUTOMATE-DISTRIBOX"]},
{"tel": ["01 53 38 96 20"], "name": "Beaurepaire", "locality": ["Paris"], "streetAdress": ["9, rue Beaurepaire (m\u00e9tro R\u00e9publique)", "\n"], "link": [], "mail": [], "postalCode": ["75010"], "position": ["maps.google.com/?q=48.870022,2.363473\""], "type": ["CAARUD"]},
{"tel": ["01 77 72 22 00 (num\u00e9ro du lieu fixe)\r\n/ 06 15 02 65 12 (portable du bus)"], "name": "Ga\u00efa", "locality": ["Paris"], "streetAdress": ["62 bis, avenue Parmentier (M\u00e9tro Parmentier)", "\n"], "link": ["http://gaia-paris.fr"], "mail": [], "postalCode": ["75010"], "position": [], "type": ["CAARUD/CSAPA"]},
{"tel": ["01 40 09 04 45 (g\u00e9r\u00e9 par Safe)"], "name": "Distributeur-Echangeur", "locality": ["Paris"], "streetAdress": [], "link": [], "mail": [], "postalCode": ["75011"], "position": ["maps.google.com?q=48.85423,2.36897\""], "type": ["AUTOMATE-DISTRIBOX"]},
{"tel": ["01 40 09 04 45 (g\u00e9r\u00e9 par Safe)"], "name": "Distributeur", "locality": ["Paris"], "streetAdress": [], "link": [], "mail": [], "postalCode": ["75012"], "position": ["maps.google.com/maps?q=48.849363,2.389181\""], "type": ["AUTOMATE-DISTRIBOX"]},
{"tel": ["01 40 09 04 45 (g\u00e9r\u00e9 par Safe)"], "name": "Distributeur", "locality": ["Paris"], "streetAdress": [], "link": [], "mail": [], "postalCode": ["75012"], "position": ["maps.google.com/maps?q=48.850709,2.375441\""], "type": ["AUTOMATE-DISTRIBOX"]},
{"tel": ["01 40 09 04 45 (g\u00e9r\u00e9 par Safe)"], "name": "Distributeur-Echangeur", "locality": ["Paris"], "streetAdress": [], "link": [], "mail": [], "postalCode": ["75012"], "position": ["maps.google.com/maps?q=48.845846,2.373833\""], "type": ["AUTOMATE-DISTRIBOX"]},
{"tel": ["01 40 09 04 45 (g\u00e9r\u00e9 par Safe)"], "name": "Distributeur-Echangeur", "locality": ["Paris"], "streetAdress": [], "link": [], "mail": [], "postalCode": ["75013"], "position": [], "type": ["AUTOMATE-DISTRIBOX"]},
{"tel": ["01 40 09 04 45 (g\u00e9r\u00e9 par Safe)"], "name": "Distributeur-Echangeur", "locality": ["Paris"], "streetAdress": [], "link": [], "mail": [], "postalCode": ["75013"], "position": ["maps.google.com?q=48.83204,2.35518\""], "type": ["AUTOMATE-DISTRIBOX"]},
{"tel": ["01 40 09 04 45 (g\u00e9r\u00e9 par Safe)"], "name": "Distributeur-Echangeur", "locality": ["Paris"], "streetAdress": [], "link": [], "mail": [], "postalCode": ["75014"], "position": ["maps.google.com/maps?q=48.828015,2.305739\""], "type": ["AUTOMATE-DISTRIBOX"]},
{"tel": ["01 40 09 04 45 (g\u00e9r\u00e9 par Safe)"], "name": "Distributeur-Echangeur", "locality": ["Paris"], "streetAdress": [], "link": [], "mail": [], "postalCode": ["75014"], "position": ["maps.google.com?q=48.84362,2.3286\""], "type": ["AUTOMATE-DISTRIBOX"]},
{"tel": ["01 43 27 83 90"], "name": "Nova Dona", "locality": ["Paris"], "streetAdress": ["\n82 avenue Denfert-Rochereau"], "link": [], "mail": [], "postalCode": ["75014"], "position": [], "type": ["CAARUD/CSAPA"]},
{"tel": ["01 40 09 04 45 (g\u00e9r\u00e9 par Safe)"], "name": "Distributeur-Echangeur", "locality": ["Paris"], "streetAdress": [], "link": [], "mail": [], "postalCode": ["75015"], "position": ["maps.google.com?q=48.84048,2.2954\""], "type": ["AUTOMATE-DISTRIBOX"]},
{"tel": ["01 40 09 04 45 (g\u00e9r\u00e9 par Safe)"], "name": "Distributeur-Echangeur", "locality": ["Paris"], "streetAdress": [], "link": [], "mail": [], "postalCode": ["75015"], "position": ["maps.google.com?q=48.84622,2.27746\""], "type": ["AUTOMATE-DISTRIBOX"]},
{"tel": ["01 40 09 04 45 (g\u00e9r\u00e9 par Safe)"], "name": "Distributeur-Echangeur", "locality": ["Paris"], "streetAdress": [], "link": [], "mail": [], "postalCode": ["75016"], "position": ["maps.google.com?q=48.85287,2.28039\""], "type": ["AUTOMATE-DISTRIBOX"]},
{"tel": ["01 40 09 04 45 (g\u00e9r\u00e9 par Safe)"], "name": "Distributeur-Echangeur", "locality": ["Paris"], "streetAdress": [], "link": [], "mail": [], "postalCode": ["75018"], "position": ["maps.google.com?q=48.89499,2.35906\""], "type": ["AUTOMATE-DISTRIBOX"]},
{"tel": ["01 40 09 04 45 (g\u00e9r\u00e9 par Safe)"], "name": "Distributeur-Echangeur", "locality": ["Paris"], "streetAdress": [], "link": [], "mail": [], "postalCode": ["75018"], "position": ["maps.google.com?q=48.89776,2.33061\""], "type": ["AUTOMATE-DISTRIBOX"]},
{"tel": ["01 40 09 04 45 (g\u00e9r\u00e9 par Safe)"], "name": "Distributeur", "locality": ["Paris"], "streetAdress": [], "link": [], "mail": [], "postalCode": ["75018"], "position": ["maps.google.com?q=48.88962,2.3404\""], "type": ["AUTOMATE-DISTRIBOX"]},
{"tel": ["01 40 09 04 45 (g\u00e9r\u00e9 par Safe)"], "name": "Distributeur-Echangeur", "locality": ["Paris"], "streetAdress": [], "link": [], "mail": [], "postalCode": ["75018"], "position": ["maps.google.com?q=48.89304,2.32789\""], "type": ["AUTOMATE-DISTRIBOX"]},
{"tel": ["01 40 09 04 45 (g\u00e9r\u00e9 par Safe)"], "name": "Distributeur", "locality": ["Paris"], "streetAdress": [], "link": [], "mail": [], "postalCode": ["75018"], "position": ["maps.google.com?q=48.89513,2.35914\""], "type": ["AUTOMATE-DISTRIBOX"]},
{"tel": ["01 46 07 94 84"], "name": "CAARUD 18", "locality": ["Paris"], "streetAdress": ["58 Boulevard Ney (M\u00e9tro Porte de la Chapelle)", "\n"], "link": [], "mail": [], "postalCode": ["75018"], "position": ["maps.google.com/?q=48.889035,2.360633\""], "type": ["CAARUD"]},
{"tel": ["01 53 28 08 89 / Fax : 01 42 58 09 46"], "name": "Coordination Toxicomanies\r\n", "locality": ["PARIS"], "streetAdress": ["87, rue Marcadet", "\n"], "link": [], "mail": [], "postalCode": ["75018"], "position": [], "type": ["CAARUD"]},
{"tel": ["01 53 09 99 40"], "name": "Espoir goutte d'Or", "locality": ["PARIS"], "streetAdress": ["13, rue Saint Luc (La Chapelle ou Ch\u00e2teau Rouge ou Barb\u00e8s Rochechouart)", "\n"], "link": ["http://www.ego.asso.fr"], "mail": [], "postalCode": ["75018"], "position": ["maps.google.com/?q=48.886442,2.353933\""], "type": ["CAARUD"]},
{"tel": ["01 46 07 87 17"], "name": "CAARUD 18 - Espace Femmes", "locality": ["Paris"], "streetAdress": ["Reserv\u00e9 \u00e0 l'accueil des femmes", "\n84, rue Philippe de Girard"], "link": [], "mail": [], "postalCode": ["75018"], "position": [], "type": ["CAARUD"]},
{"tel": ["01 42 64 23 21"], "name": "Step", "locality": ["Paris"], "streetAdress": ["56, bd de la Chapelle (M\u00e9tro : Gare du Nord ou La Chapelle)", "\n"], "link": [], "mail": [], "postalCode": ["75018"], "position": ["maps.google.com/?q=48.884355,2.355899\""], "type": ["PROGRAMME ECHANGE DE SERINGUES"]},
{"tel": ["01 40 09 04 45 (g\u00e9r\u00e9 par Safe)"], "name": "Distributeur-Echangeur", "locality": ["Paris"], "streetAdress": [], "link": [], "mail": [], "postalCode": ["75019"], "position": ["maps.google.com?q=48.87869,2.37018\""], "type": ["AUTOMATE-DISTRIBOX"]},
{"tel": ["01 40 09 04 45 (g\u00e9r\u00e9 par Safe)"], "name": "Distributeur", "locality": ["Paris"], "streetAdress": [], "link": [], "mail": [], "postalCode": ["75019"], "position": ["maps.google.com?q=48.89068,2.37613\""], "type": ["AUTOMATE-DISTRIBOX"]},
{"tel": ["01 42 45 16 43"], "name": "Bor\u00e9al / La terrasse", "locality": ["Paris"], "streetAdress": ["64 ter, rue de Meaux (m\u00e9tro Jaures)", "\n"], "link": [], "mail": [], "postalCode": ["75019"], "position": [], "type": ["CAARUD"]},
{"tel": ["01 40 03 90 90 / Fax : 01 40 03 95 25"], "name": "Kal\u00e9idoscope", "locality": ["Paris"], "streetAdress": ["7, rue Carolus Duran", "\n"], "link": ["http://www.groupe-sos.org/centres/28-Kaleidoscope"], "mail": [], "postalCode": ["75019"], "position": [], "type": ["CAARUD"]},
{"tel": ["01 53 24 12 00 / 06 85 03 56 32"], "name": "CAARUD Paris Les Halles", "locality": ["Paris"], "streetAdress": ["36, rue Dussoubs - 75002 Paris (M\u00e9tro Sentier ou R\u00e9aumur-S\u00e9bastopol)", "\n"], "link": [], "mail": [], "postalCode": ["75019"], "position": [], "type": ["CAARUD"]},
{"tel": ["01 40 09 04 45 (g\u00e9r\u00e9 par Safe)"], "name": "Distributeur-Echangeur", "locality": ["Paris"], "streetAdress": [], "link": [], "mail": [], "postalCode": ["75020"], "position": ["maps.google.com?q=48.84814,2.40101\""], "type": ["AUTOMATE-DISTRIBOX"]},
{"tel": ["01 40 09 04 45 (g\u00e9r\u00e9 par Safe)"], "name": "Distributeur", "locality": ["Paris"], "streetAdress": [], "link": [], "mail": [], "postalCode": ["75020"], "position": ["maps.google.com?q=48.87366,2.38473\""], "type": ["AUTOMATE-DISTRIBOX"]},
{"tel": ["01 40 09 04 45 (g\u00e9r\u00e9 par Safe)"], "name": "Distributeur-Echangeur", "locality": ["Paris"], "streetAdress": [], "link": [], "mail": [], "postalCode": ["75020"], "position": [], "type": ["AUTOMATE-DISTRIBOX"]},
{"tel": ["01 40 09 04 45 (g\u00e9r\u00e9 par Safe)"], "name": "Distributeur-Echangeur", "locality": ["Paris"], "streetAdress": [], "link": [], "mail": [], "postalCode": ["75020"], "position": ["maps.google.com/maps?q=48.864568,2.405789\""], "type": ["AUTOMATE-DISTRIBOX"]},
{"tel": ["01 40 09 04 45 (g\u00e9r\u00e9 par Safe)"], "name": "Distributeur-Echangeur", "locality": ["Paris"], "streetAdress": [], "link": [], "mail": [], "postalCode": ["75020"], "position": ["maps.google.com?q=48.86029,2.38854\""], "type": ["AUTOMATE-DISTRIBOX"]},
{"tel": ["04 91 62 84 84 (g\u00e9r\u00e9 par le Sleep In)"], "name": "Distributeur-Echangeur", "locality": ["Marseille"], "streetAdress": [], "link": [], "mail": [], "postalCode": ["13002"], "position": [], "type": ["AUTOMATE-DISTRIBOX"]},
{"tel": ["04 95 04 56 06"], "name": "Association Bus 31/32", "locality": ["MARSEILLE"], "streetAdress": ["4, avenue Rostand", "\n"], "link": [], "mail": [], "postalCode": ["13003"], "position": [], "type": ["CAARUD"]},
{"tel": ["04 95 04 56 06 (pour avoir la liste des pharmacies participantes)"], "name": "de Marseille", "locality": ["Marseille"], "streetAdress": ["G\u00e9r\u00e9 par le Bus 31-32", "\n4, avenue Rostand"], "link": [], "mail": [], "postalCode": ["13003"], "position": [], "type": ["PROGRAMME \u00c9CHANGE DE SERINGUES EN PHARMACIE"]},
{"tel": ["04 91 62 84 84 (g\u00e9r\u00e9 par le Sleep In)"], "name": "Distributeur-Echangeur", "locality": ["Marseille"], "streetAdress": [], "link": [], "mail": [], "postalCode": ["13005"], "position": [], "type": ["AUTOMATE-DISTRIBOX"]},
{"tel": ["04 91 62 84 84 (g\u00e9r\u00e9 par le Sleep In)"], "name": "Distributeur-Echangeur", "locality": ["Marseille"], "streetAdress": [], "link": [], "mail": [], "postalCode": ["13001"], "position": [], "type": ["AUTOMATE-DISTRIBOX"]},
{"tel": ["04 91 62 84 84"], "name": "Le Sleep'in", "locality": ["MARSEILLE"], "streetAdress": ["8, rue Marcel Sembat", "\n"], "link": [], "mail": [], "postalCode": ["13001"], "position": [], "type": ["CAARUD"]},
{"tel": ["04 91 92 53 11"], "name": "LE TIPI", "locality": ["MARSEILLE"], "streetAdress": ["26a, rue de la Biblioth\u00e8que", "\n"], "link": [], "mail": [], "postalCode": ["13001"], "position": ["maps.google.com?q=43.295615,5.3850057\""], "type": ["CAARUD"]},
{"tel": ["04 91 90 03 70"], "name": "ASUD Marseille", "locality": ["MARSEILLE"], "streetAdress": ["52, rue du Coq", "\n"], "link": [], "mail": [], "postalCode": ["13001"], "position": [], "type": ["CAARUD"]},
{"tel": ["01 40 09 04 45 (g\u00e9r\u00e9 par Safe)"], "name": "Distributeur", "locality": ["Paris"], "streetAdress": [], "link": [], "mail": [], "postalCode": ["75003"], "position": ["maps.google.com?q=48.86746,2.35331\""], "type": ["AUTOMATE-DISTRIBOX"]},
{"tel": ["04 91 62 84 84 (g\u00e9r\u00e9 par le Sleep In)"], "name": "Distributeur-Echangeur", "locality": ["Marseille"], "streetAdress": [], "link": [], "mail": [], "postalCode": ["13008"], "position": [], "type": ["AUTOMATE-DISTRIBOX"]},
{"tel": ["04 91 74 61 87"], "name": "PROTOX", "locality": ["MARSEILLE"], "streetAdress": ["270, boulevard Sainte Marguerite", "\n"], "link": [], "mail": [], "postalCode": ["13009"], "position": [], "type": ["CAARUD"]},
{"tel": ["04 91 62 84 84 (g\u00e9r\u00e9 par le Sleep In)"], "name": "Distributeur-Echangeur", "locality": ["Marseille"], "streetAdress": [], "link": [], "mail": [], "postalCode": ["13010"], "position": [], "type": ["AUTOMATE-DISTRIBOX"]},
{"tel": ["04 91 62 84 84 (g\u00e9r\u00e9 par le Sleep In)"], "name": "Distributeur-Echangeur", "locality": ["Marseille"], "streetAdress": [], "link": [], "mail": [], "postalCode": ["13011"], "position": [], "type": ["AUTOMATE-DISTRIBOX"]},
{"tel": ["04 91 62 84 84 (g\u00e9r\u00e9 par le Sleep In)"], "name": "Distributeur", "locality": ["Marseille"], "streetAdress": [], "link": [], "mail": [], "postalCode": ["13012"], "position": [], "type": ["AUTOMATE-DISTRIBOX"]},
{"tel": ["04 91 62 84 84 (g\u00e9r\u00e9 par le Sleep In)"], "name": "Distributeur", "locality": ["Marseille"], "streetAdress": [], "link": [], "mail": [], "postalCode": ["13015"], "position": [], "type": ["AUTOMATE-DISTRIBOX"]},
{"tel": ["04 91 62 84 84 (g\u00e9r\u00e9 par le Sleep In)"], "name": "Distributeur-Echangeur", "locality": ["Marseille"], "streetAdress": [], "link": [], "mail": [], "postalCode": ["13015"], "position": [], "type": ["AUTOMATE-DISTRIBOX"]},
{"tel": ["04 72 83 14 00 (g\u00e9r\u00e9 par la direction de l'ecologie urbaine de la mairie de Lyon)"], "name": "Distributeur-Echangeur", "locality": ["Lyon"], "streetAdress": [], "link": [], "mail": [], "postalCode": ["69001"], "position": [], "type": ["AUTOMATE-DISTRIBOX"]},
{"tel": ["04 78 39 34 89 / 06 30 52 02 96 (travail mobile)"], "name": "RUPTURES", "locality": ["LYON"], "streetAdress": ["36, rue Burdeau", "\n"], "link": ["http://www.ruptures.asso.fr"], "mail": [], "postalCode": ["69001"], "position": [], "type": ["CAARUD"]},
{"tel": ["04 78 30 02 65 / 06 07 62 26 59"], "name": "Cabiria", "locality": ["LYON"], "streetAdress": ["Une action pour et avec les personnes prostitu\u00e9es", "\n5 quai Lassagne  "], "link": [], "mail": [], "postalCode": ["69001"], "position": [], "type": ["PROGRAMME ECHANGE DE SERINGUES"]},
{"tel": ["04 78 39 34 89 (Pour avoir la liste des pharmacies participantes)"], "name": "PES en pharmacie de l'agglom\u00e9ration Lyonnaise (PEKO)", "locality": ["Lyon"], "streetAdress": ["Programme g\u00e9r\u00e9 par le Caarud Ruptures", "\n36, rue Burdeau"], "link": [], "mail": [], "postalCode": ["69001"], "position": [], "type": ["PROGRAMME \u00c9CHANGE DE SERINGUES EN PHARMACIE"]},
{"tel": ["04 72 83 14 00 (g\u00e9r\u00e9 par la direction de l'ecologie urbaine de la mairie de Lyon)"], "name": "Distributeur-Echangeur", "locality": ["Lyon"], "streetAdress": [], "link": [], "mail": [], "postalCode": ["69002"], "position": [], "type": ["AUTOMATE-DISTRIBOX"]},
{"tel": ["04.78.68.05.05 "], "name": "Aides 69", "locality": ["Lyon"], "streetAdress": ["10, rue Marc-Antoine Petit", "\n"], "link": [], "mail": [], "postalCode": ["69002"], "position": [], "type": ["PROGRAMME ECHANGE DE SERINGUES"]},
{"tel": ["04 72 83 14 00 (g\u00e9r\u00e9 par la direction de l'ecologie urbaine de la mairie de Lyon)"], "name": "Distributeur-Echangeur", "locality": ["Lyon"], "streetAdress": [], "link": [], "mail": [], "postalCode": ["69003"], "position": [], "type": ["AUTOMATE-DISTRIBOX"]},
{"tel": ["04 78 62 03 74 / Fax 04 78 62 28 79"], "name": "PAUSE DIABOLO / Association Le M.A.S.", "locality": ["LYON"], "streetAdress": ["64, rue Villeroy", "\n"], "link": [], "mail": [], "postalCode": ["69003"], "position": [], "type": ["CAARUD"]},
{"tel": ["04.72.60.92.66"], "name": "Keep Smiling (autosupport en milieu festif)", "locality": ["Lyon"], "streetAdress": ["3, rue Baraban", "\n"], "link": [], "mail": [], "postalCode": ["69006"], "position": [], "type": ["PROGRAMME ECHANGE DE SERINGUES"]},
{"tel": ["01 40 09 04 45 (g\u00e9r\u00e9 par Safe)"], "name": "Distributeur", "locality": ["Paris"], "streetAdress": [], "link": [], "mail": [], "postalCode": ["75006"], "position": ["maps.google.com?q=48.84362,2.3286\""], "type": ["AUTOMATE-DISTRIBOX"]},
{"tel": ["05 34 31 36 60 (g\u00e9r\u00e9 par le Caarud Aides)"], "name": "Distributeur", "locality": ["Toulouse"], "streetAdress": [], "link": [], "mail": [], "postalCode": ["31000"], "position": [], "type": ["AUTOMATE-DISTRIBOX"]},
{"tel": ["05 34 31 36 60 (g\u00e9r\u00e9 par le Caarud Aides)"], "name": "Distributeur", "locality": ["Toulouse"], "streetAdress": [], "link": [], "mail": [], "postalCode": ["31000"], "position": [], "type": ["AUTOMATE-DISTRIBOX"]},
{"tel": ["05 34 31 36 60 (g\u00e9r\u00e9 par le Caarud Aides)"], "name": "Distributeur-Echangeur", "locality": ["Toulouse"], "streetAdress": [], "link": [], "mail": [], "postalCode": ["31000"], "position": [], "type": ["AUTOMATE-DISTRIBOX"]},
{"tel": ["05 34 31 36 60 (g\u00e9r\u00e9 par le Caarud Aides)"], "name": "Distributeur-Echangeur", "locality": ["Toulouse"], "streetAdress": [], "link": [], "mail": [], "postalCode": ["31000"], "position": [], "type": ["AUTOMATE-DISTRIBOX"]},
{"tel": ["05 34 31 36 60 (g\u00e9r\u00e9 par le Caarud Aides)"], "name": "Distributeur-Echangeur", "locality": ["Toulouse"], "streetAdress": [], "link": [], "mail": [], "postalCode": ["31000"], "position": [], "type": ["AUTOMATE-DISTRIBOX"]},
{"tel": ["05 34 45 40 40"], "name": "Interm\u00e8de", "locality": ["TOULOUSE"], "streetAdress": ["2 Bis rue Cl\u00e9mence Isaure", "\n"], "link": [], "mail": [], "postalCode": ["31000"], "position": [], "type": ["CAARUD"]},
{"tel": ["04 91 62 84 84 (g\u00e9r\u00e9 par le Sleep In)"], "name": "Distributeur-Echangeur", "locality": ["Marseille"], "streetAdress": [], "link": [], "mail": [], "postalCode": ["13013"], "position": [], "type": ["AUTOMATE-DISTRIBOX"]},
{"tel": ["05 34 31 36 60 / fax 05 34 31 36 31\r\n"], "name": "AIDES", "locality": ["TOULOUSE"], "streetAdress": ["16, avenue Etienne Billi\u00e8res", "\n"], "link": [], "mail": [], "postalCode": ["31300"], "position": [], "type": ["CAARUD"]},
{"tel": ["04 92 47 81 81 (g\u00e9r\u00e9 par le CAARRUD la b\u00e9luga)"], "name": "Distributeur-Echangeur", "locality": ["Nice"], "streetAdress": [], "link": [], "mail": [], "postalCode": ["6000"], "position": [], "type": ["AUTOMATE-DISTRIBOX"]},
{"tel": ["04 93 16 00 49 / 06 30 55 63 81 (bus mobile)"], "name": "Boutique Entractes", "locality": ["NICE"], "streetAdress": ["6, rue Offenbach", "\n"], "link": [], "mail": [], "postalCode": ["6000"], "position": [], "type": ["CAARUD"]},
{"tel": ["04.93.80.28.18 T\u00e9l mobile : 06.78.03.26.32 / 06.78.03.26.30"], "name": "Lou Passagin - la Belluga", "locality": ["NICE "], "streetAdress": ["12 rue Emmanuel Philibert", "\n"], "link": [], "mail": [], "postalCode": ["6000"], "position": [], "type": ["CAARUD"]},
{"tel": ["04 93 53 17 00"], "name": "CSAPA Actes", "locality": ["Nice"], "streetAdress": ["6 av de l'Olivetto", "\n"], "link": [], "mail": [], "postalCode": ["6000"], "position": [], "type": ["PROGRAMME ECHANGE DE SERINGUES"]},
{"tel": ["04 93 16 00 49 (Pour avoir la listes des pharmacies participantes)"], "name": "PES en pharmacie sur Grasse, Antibes, Nice,Vallauris, Mandelieu, Cannes", "locality": [], "streetAdress": ["Programme g\u00e9r\u00e9 par le Caarud Entractes", "\n"], "link": [], "mail": [], "postalCode": ["6000"], "position": [], "type": ["PROGRAMME \u00c9CHANGE DE SERINGUES EN PHARMACIE"]},
{"tel": ["02 51 72 06 59 (g\u00e9r\u00e9 par le Caarud l'Acoth\u00e9)"], "name": "Distributeur-Echangeur", "locality": ["Nantes"], "streetAdress": [], "link": [], "mail": [], "postalCode": ["44000"], "position": ["maps.google.com/maps?q=47.210751,-1.551774\""], "type": ["AUTOMATE-DISTRIBOX"]},
{"tel": ["02 51 72 06 59 (g\u00e9r\u00e9 par le Caarud l'Acoth\u00e9)"], "name": "Distributeur-Echangeur", "locality": ["Nantes"], "streetAdress": [], "link": [], "mail": [], "postalCode": ["44000"], "position": ["maps.google.com/maps?q=47.219542,-1.534168\""], "type": ["AUTOMATE-DISTRIBOX"]},
{"tel": ["02 51 72 06 59"], "name": "L'Ac\u00f4th\u00e9", "locality": ["NANTES"], "streetAdress": ["1 bis, Boulevard de Launay(Arret de Tram: Chantier naval)", "\n"], "link": [], "mail": [], "postalCode": ["44000"], "position": ["maps.google.com/maps?q=47.209924,-1.571284\""], "type": ["CAARUD"]},
{"tel": ["02 40 47 99 56"], "name": "Aides 44", "locality": ["Nantes"], "streetAdress": ["20 rue Baron", "\n"], "link": [], "mail": [], "postalCode": ["44000"], "position": [], "type": ["PROGRAMME ECHANGE DE SERINGUES"]},
{"tel": ["03 88 52 04 04 (g\u00e9r\u00e9 par Ithaque)"], "name": "Distributeur-Echangeur", "locality": ["Strasbourg"], "streetAdress": [], "link": [], "mail": [], "postalCode": ["67000"], "position": [], "type": ["AUTOMATE-DISTRIBOX"]},
{"tel": ["03 88 52 04 04 / fax : 03 88 52 04 05"], "name": "Espace Ind\u00e9pendance", "locality": ["STRASBOURG"], "streetAdress": ["12 rue Kuhn", "\n"], "link": ["http://www.espace-independance.org"], "mail": [], "postalCode": ["67000"], "position": [], "type": ["CAARUD"]},
{"tel": ["03 88 75 73 63"], "name": "AIDES Bas-Rhin", "locality": ["STRASBOURG"], "streetAdress": ["21, rue de la Premi\u00e8re Arm\u00e9e", "\n"], "link": [], "mail": [], "postalCode": ["67000"], "position": [], "type": ["CAARUD"]},
{"tel": ["05 56 92 51 89 (g\u00e9r\u00e9 par le Caarud La Case)"], "name": "Distributeur-Echangeur", "locality": ["Bordeaux"], "streetAdress": [], "link": [], "mail": [], "postalCode": ["33000"], "position": ["maps.google.com/maps?q=44.833071,-0.578051\""], "type": ["AUTOMATE-DISTRIBOX"]},
{"tel": ["05 56 92 51 89 (g\u00e9r\u00e9 par le Caarud La Case)"], "name": "Distributeur-Echangeur", "locality": ["Bordeaux"], "streetAdress": [], "link": [], "mail": [], "postalCode": ["33000"], "position": ["maps.google.com/maps?q=44.855829,-0.563834\""], "type": ["AUTOMATE-DISTRIBOX"]},
{"tel": ["05 56 91 07 23"], "name": "CEID Centre Planterose", "locality": ["Bordeaux"], "streetAdress": ["16, rue Planterose", "\n"], "link": [], "mail": [], "postalCode": ["33000"], "position": ["maps.google.com/maps?q=44.833195,-0.565883\""], "type": ["CAARUD"]},
{"tel": ["05 56 44 84 86 ou 06 09 10 36 86"], "name": "Unit\u00e9 mobile CEID", "locality": ["Bordeaux"], "streetAdress": ["24, rue du parlement Saint-Pierre", "\n"], "link": [], "mail": [], "postalCode": ["33000"], "position": [], "type": ["CAARUD"]},
{"tel": ["05 56 92 51 89"], "name": "La Case", "locality": ["Bordeaux"], "streetAdress": ["2, rue des \u00e9tables", "\n"], "link": [], "mail": [], "postalCode": ["33000"], "position": ["maps.google.com/maps?q=44.830442,-0.56095\""], "type": ["CAARUD"]},
{"tel": ["05 56 44 84 86 (pour avoir la liste des pharmacies participantes)"], "name": "PES en pharmacie ", "locality": ["Bordeaux"], "streetAdress": ["G\u00e9r\u00e9 par le CEID", "\n24, rue du parlement Saint-Pierre"], "link": [], "mail": [], "postalCode": ["33000"], "position": [], "type": ["PROGRAMME \u00c9CHANGE DE SERINGUES EN PHARMACIE"]},
{"tel": ["04 67 58 62 23 / 04 67 92 38 14"], "name": "AXESS (SOS DI)", "locality": ["MONTPELLIER"], "streetAdress": ["47, rue du Faubourg Saint Jaumes\r\n", "\n"], "link": [], "mail": [], "postalCode": ["34000"], "position": [], "type": ["CAARUD"]},
{"tel": ["04 67 58 01 01"], "name": "La Boutik \"Reduire les risques\"", "locality": ["MONTPELLIER"], "streetAdress": ["Accueil r\u00e9serv\u00e9 aux femmes", "\n5, rue Fouques"], "link": [], "mail": [], "postalCode": ["34000"], "position": [], "type": ["CAARUD"]},
{"tel": ["03 20 52 00 97 (g\u00e9r\u00e9 par Ellipse)"], "name": "Distributeur-Echangeur", "locality": ["Lille"], "streetAdress": [], "link": [], "mail": [], "postalCode": ["59000"], "position": ["maps.google.com/?q=50.63683,3.07371\""], "type": ["AUTOMATE-DISTRIBOX"]},
{"tel": [], "name": "R\u00e9cup\u00e9rateur", "locality": ["Lille"], "streetAdress": [], "link": [], "mail": [], "postalCode": ["59000"], "position": [], "type": ["AUTOMATE-DISTRIBOX"]},
{"tel": ["03 20 52 00 97 (g\u00e9r\u00e9 par Ellipse)"], "name": "Distributeur-Echangeur", "locality": ["Lille"], "streetAdress": [], "link": [], "mail": [], "postalCode": ["59000"], "position": ["maps.google.com/?q=50.62291,3.05763\""], "type": ["AUTOMATE-DISTRIBOX"]},
{"tel": ["03 20 52 00 97 (g\u00e9r\u00e9 par Ellipse)"], "name": "Distributeur/R\u00e9cup\u00e9rateur", "locality": ["Lille"], "streetAdress": [], "link": [], "mail": [], "postalCode": ["59000"], "position": ["maps.google.com/?q=50.64303,3.06243\""], "type": ["AUTOMATE-DISTRIBOX"]},
{"tel": ["03 20 52 00 97 (g\u00e9r\u00e9 par Ellipse)"], "name": "R\u00e9cup\u00e9rateur", "locality": ["Lille"], "streetAdress": [], "link": [], "mail": [], "postalCode": ["59000"], "position": ["maps.google.com/?q=50.61991,3.0756\""], "type": ["AUTOMATE-DISTRIBOX"]},
{"tel": ["03 20 52 00 97"], "name": "Ellipse", "locality": ["LILLE"], "streetAdress": ["57, rue Jean Jaur\u00e8s", "\n"], "link": [], "mail": [], "postalCode": ["59000"], "position": ["maps.google.com/?q=50.61991,3.0756\""], "type": ["CAARUD"]},
{"tel": ["03 20 15 91 20 / Fax : 03 20 15 91 29"], "name": "Le point de rep\u00e8re", "locality": ["LILLE"], "streetAdress": ["9, place St Hubert (Metro Gare Lille Flandres)", "\n"], "link": ["http://www.abej-lille.com/les_moyens/le_point_de_repere/"], "mail": [], "postalCode": ["59000"], "position": ["maps.google.com/?q=50.63874,3.07009\""], "type": ["CAARUD"]},
{"tel": ["03 28 52 05 30"], "name": "AIDES Nord Pas de Calais", "locality": ["LILLE"], "streetAdress": ["5, rue Court Debout (Metro Republique)", "\n"], "link": [], "mail": [], "postalCode": ["59000"], "position": ["maps.google.com/?q=50.6327,3.06346\""], "type": ["CAARUD"]},
{"tel": ["03 20 31 19 19"], "name": "SPIRITEK", "locality": ["LILLE"], "streetAdress": ["49, rue du Molinel (M\u00e9tro Gare Lille Flandres)", "\n"], "link": [], "mail": [], "postalCode": ["59000"], "position": ["maps.google.com/?q=50.3488,3.06854\""], "type": ["CAARUD"]},
{"tel": ["03 20 55 64 66"], "name": "Entr'actes", "locality": ["LILLE"], "streetAdress": ["Une action pour et avec les personnes prostitu\u00e9es", "\n10 rue de Metz"], "link": ["http://www.entractes-gpal.org"], "mail": [], "postalCode": ["59000"], "position": ["maps.google.com/?q=50.64501,3.05942\""], "type": ["CAARUD"]},
{"tel": ["03 28 04 53 80 / fax : 03 28 04 53 89"], "name": "SleepIn (H\u00e9bergement urgence nuit toxicomanes)", "locality": ["Lille"], "streetAdress": ["247 bd Victor Hugo  (Metro Porte des Postes)", "\n"], "link": [], "mail": [], "postalCode": ["59000"], "position": ["maps.google.com/?q=50.%2062032,3.05554\""], "type": ["CAARUD"]},
{"tel": ["03 26 06 14 80 (g\u00e9r\u00e9 par le Caarud 51)"], "name": "Distributeur-Echangeur", "locality": ["Reims"], "streetAdress": [], "link": [], "mail": [], "postalCode": ["51100"], "position": [], "type": ["AUTOMATE-DISTRIBOX"]},
{"tel": ["03 26 06 14 80 (g\u00e9r\u00e9 par le Caarud 51)"], "name": "Distributeur", "locality": ["Reims"], "streetAdress": [], "link": [], "mail": [], "postalCode": ["51100"], "position": [], "type": ["AUTOMATE-DISTRIBOX"]},
{"tel": ["03 26 64 68 75 (g\u00e9r\u00e9 par le Code 51)"], "name": "Distributeur-Echangeur", "locality": ["Reims"], "streetAdress": [], "link": [], "mail": [], "postalCode": ["51100"], "position": [], "type": ["AUTOMATE-DISTRIBOX"]},
{"tel": ["03 26 06 14 80 / 07 60 28 92 95"], "name": "CAARUD-51", "locality": ["Reims"], "streetAdress": ["62 Esplanade Fl\u00e9chambault", "\n"], "link": [], "mail": [], "postalCode": ["51100"], "position": [], "type": ["CAARUD"]},
{"tel": ["02 35 19 32 43 (g\u00e9r\u00e9 par Nautilia)"], "name": "Distributeur-Echangeur", "locality": ["Le Havre"], "streetAdress": [], "link": [], "mail": [], "postalCode": ["76600"], "position": ["maps.google.com/maps?q=49.492088,0.123355\""], "type": ["AUTOMATE-DISTRIBOX"]},
{"tel": ["02 35 19 32 43 (g\u00e9r\u00e9 par Nautilia)"], "name": "Distributeur-Echangeur", "locality": ["Le Havre"], "streetAdress": [], "link": [], "mail": [], "postalCode": ["76600"], "position": ["maps.google.com/maps?q=49.502175,0.150452\""], "type": ["AUTOMATE-DISTRIBOX"]},
{"tel": ["02 35 19 32 43 (g\u00e9r\u00e9 par Nautilia)"], "name": "Distributeur-Echangeur", "locality": ["Le Havre"], "streetAdress": [], "link": [], "mail": [], "postalCode": ["76600"], "position": ["maps.google.com/maps?q=49.490483,0.133151\""], "type": ["AUTOMATE-DISTRIBOX"]},
{"tel": ["02 35 19 32 43 (g\u00e9r\u00e9 par Nautilia)"], "name": "Distributeur-Echangeur", "locality": ["Le Havre"], "streetAdress": [], "link": [], "mail": [], "postalCode": ["76600"], "position": ["maps.google.com/maps?q=49.508617,0.139110\""], "type": ["AUTOMATE-DISTRIBOX"]},
{"tel": ["02.35.47.38.24 / 06.86.83.12.02"], "name": "Eskapade", "locality": ["Le Havre"], "streetAdress": ["22/24 rue de Bapaume", "\n"], "link": ["http://http://www.oppelia.fr/"], "mail": [], "postalCode": ["76600"], "position": [], "type": ["CAARUD"]},
{"tel": ["02 35 24 22 03"], "name": "Aides Le Havre", "locality": ["Le Havre"], "streetAdress": ["25 cours de la R\u00e9publique", "\n"], "link": [], "mail": [], "postalCode": ["76600"], "position": [], "type": ["CAARUD"]},
{"tel": ["02 35 19 32 43"], "name": "Nautilia", "locality": ["LE HAVRE"], "streetAdress": ["97 rue Jules Siegfried", "\n"], "link": [], "mail": [], "postalCode": ["76600"], "position": ["maps.google.com/maps?q=49.492305,0.116249\""], "type": ["CSAPA"]},
{"tel": ["02 23 20 35 28 (g\u00e9r\u00e9 par AIRDDS - 1 Place du Mar\u00e9chal Juin - 35000 Rennes)"], "name": "Distributeur-Echangeur", "locality": ["Rennes"], "streetAdress": [], "link": [], "mail": [], "postalCode": ["35000"], "position": [], "type": ["AUTOMATE-DISTRIBOX"]},
{"tel": ["02 23 20 35 28 (g\u00e9r\u00e9 par AIRDDS - 1 Place du Mar\u00e9chal Juin - 35000 Rennes)"], "name": "Distributeur-Echangeur", "locality": ["Rennes"], "streetAdress": [], "link": [], "mail": [], "postalCode": ["35000"], "position": [], "type": ["AUTOMATE-DISTRIBOX"]},
{"tel": ["02 23 40 17 42"], "name": "INTERM'AIDES", "locality": ["RENNES"], "streetAdress": ["43 Rue St H\u00e9lier ", "\n"], "link": [], "mail": [], "postalCode": ["35000"], "position": [], "type": ["CAARUD"]},
{"tel": ["04 77 41 66 99 / Fax: 04 77 32 38 74"], "name": "Actis 42", "locality": ["Saint Etienne"], "streetAdress": ["6, rue Michel Servet", "\n"], "link": ["http://actis42.free.fr"], "mail": [], "postalCode": ["42000"], "position": [], "type": ["PROGRAMME ECHANGE DE SERINGUES"]},
{"tel": ["04 77 21 31 13"], "name": "Centre rimbaud", "locality": ["SAINT ETIENNE"], "streetAdress": ["11 place de l'hotel de ville", "\n"], "link": [], "mail": [], "postalCode": ["42000"], "position": [], "type": ["CAARUD/CSAPA"]},
{"tel": ["04 94 62 96 23"], "name": "AIDES Toulon", "locality": ["Toulon"], "streetAdress": ["2, rue Baudin", "\n"], "link": [], "mail": [], "postalCode": ["83000"], "position": [], "type": ["CAARUD"]},
{"tel": ["04 94 62 96 23 (Pour avoir la liste des pharmacies participantes)"], "name": "PES en pharmacie du Var", "locality": ["Toulon"], "streetAdress": ["G\u00e9r\u00e9 par Aides Var", "\n2, rue Baudin"], "link": [], "mail": [], "postalCode": ["83000"], "position": [], "type": ["PROGRAMME \u00c9CHANGE DE SERINGUES EN PHARMACIE"]},
{"tel": ["04 76 47 20 37 / 04 76 47 50 18"], "name": "AIDES\r\n", "locality": ["GRENOBLE"], "streetAdress": ["8, rue du Sergent Bobillot", "\n"], "link": [], "mail": [], "postalCode": ["38000"], "position": [], "type": ["CAARUD"]},
{"tel": ["06 98 29 02 18"], "name": "AXES\r\n", "locality": ["GRENOBLE"], "streetAdress": ["6 rue Denis Papin", "\n"], "link": [], "mail": [], "postalCode": ["38000"], "position": [], "type": ["CAARUD"]},
{"tel": ["04 76 47 20 37 / 04 76 47 50 18 pour avoir la liste des pharmacies participantes"], "name": "PES en pharmacie de l'agglom\u00e9ration de Grenoble", "locality": ["GRENOBLE"], "streetAdress": ["G\u00e9r\u00e9 par Aides 38", "\n8, rue du Sergent Bobillot"], "link": [], "mail": [], "postalCode": ["38000"], "position": [], "type": ["PROGRAMME \u00c9CHANGE DE SERINGUES EN PHARMACIE"]},
{"tel": ["02 41 47 47 37 (Alia)"], "name": "Distributeur-Echangeur", "locality": ["Angers"], "streetAdress": [], "link": [], "mail": [], "postalCode": ["49000"], "position": [], "type": ["AUTOMATE-DISTRIBOX"]},
{"tel": ["02 41 93 63 17"], "name": "La Boutik", "locality": ["ANGERS"], "streetAdress": ["23 rue Marceau", "\n"], "link": ["http://http://www.alia49.fr"], "mail": [], "postalCode": ["49000"], "position": [], "type": ["CAARUD"]},
{"tel": ["02 41 88 76 00"], "name": "Aides 49", "locality": ["Angers"], "streetAdress": ["1 rue Joubert", "\n"], "link": [], "mail": [], "postalCode": ["49100"], "position": [], "type": ["PROGRAMME ECHANGE DE SERINGUES"]},
{"tel": ["02 43 77 49 67 (g\u00e9r\u00e9 par le Caarud Artox)"], "name": "Distributeur-Echangeur", "locality": ["Le mans"], "streetAdress": [], "link": [], "mail": [], "postalCode": ["72000"], "position": [], "type": ["AUTOMATE-DISTRIBOX"]},
{"tel": ["02 43 14 15 40  / 06 20 90 07 61"], "name": "ARTOX", "locality": ["LE MANS"], "streetAdress": ["32 rue d'Iena", "\n"], "link": ["http://2/09/2014"], "mail": [], "postalCode": ["72000"], "position": [], "type": ["CAARUD"]},
{"tel": ["02 43 23 96 71"], "name": "Aides Le Mans", "locality": ["Le Mans"], "streetAdress": ["57, rue d'Eichthal", "\n"], "link": [], "mail": [], "postalCode": ["72000"], "position": [], "type": ["PROGRAMME ECHANGE DE SERINGUES"]},
{"tel": ["04 42 96 44 52 (g\u00e9r\u00e9 par l'association l'ELF)"], "name": "Distributeur", "locality": ["Aix en Provence"], "streetAdress": [], "link": [], "mail": [], "postalCode": ["13100"], "position": [], "type": ["AUTOMATE-DISTRIBOX"]},
{"tel": ["04 42 96 44 52"], "name": "T.H.C. \"Tout Homme est citoyen\" (Asso L'ELF)  ", "locality": ["AIX en PROVENCE"], "streetAdress": ["6, rue des Guerriers (locaux administratifs)", "\n"], "link": [], "mail": [], "postalCode": ["13100"], "position": [], "type": ["CAARUD"]},
{"tel": ["02 98 80 41 27 (g\u00e9r\u00e9 par Aides et l'ADI - Hopital Morvan)"], "name": "Distributeur-Echangeur", "locality": ["Brest"], "streetAdress": [], "link": [], "mail": [], "postalCode": ["29200"], "position": [], "type": ["AUTOMATE-DISTRIBOX"]},
{"tel": ["02 98 80 41 27 (g\u00e9r\u00e9 par Aides et l'ADI - Hopital Morvan)"], "name": "Distributeur-Echangeur", "locality": ["Brest"], "streetAdress": [], "link": [], "mail": [], "postalCode": ["29200"], "position": [], "type": ["AUTOMATE-DISTRIBOX"]},
{"tel": ["02 98 80 41 27 / 02-98-43-18-72"], "name": "LOVER PAUSE (Aides Finist\u00e8re)", "locality": ["Brest"], "streetAdress": ["16, rue Alexandre Ribot", "\n"], "link": [], "mail": [], "postalCode": ["29200"], "position": [], "type": ["CAARUD"]},
{"tel": ["04 66 76 26 07 (g\u00e9r\u00e9 par Aides Nimes)"], "name": "Distributeur-Echangeur", "locality": ["Nimes"], "streetAdress": [], "link": [], "mail": [], "postalCode": ["30000"], "position": [], "type": ["AUTOMATE-DISTRIBOX"]},
{"tel": ["04 66 76 26 07 (g\u00e9r\u00e9 par Aides Nimes)"], "name": "Distributeur-Echangeur", "locality": ["Nimes"], "streetAdress": [], "link": [], "mail": [], "postalCode": ["30000"], "position": [], "type": ["AUTOMATE-DISTRIBOX"]},
{"tel": ["04 66 36 00 12 (g\u00e9r\u00e9 par Asud Nimes)"], "name": "Poubelle r\u00e9cup\u00e9ratrice", "locality": ["Nimes"], "streetAdress": [], "link": [], "mail": [], "postalCode": ["30000"], "position": [], "type": ["AUTOMATE-DISTRIBOX"]},
{"tel": ["04 66 36 00 12 (g\u00e9r\u00e9 par Asud Nimes)"], "name": "Poubelle r\u00e9cup\u00e9ratrice", "locality": ["Nimes"], "streetAdress": [], "link": [], "mail": [], "postalCode": ["30000"], "position": [], "type": ["AUTOMATE-DISTRIBOX"]},
{"tel": ["04 66 36 00 12 (g\u00e9r\u00e9 par Asud Nimes)"], "name": "Poubelle r\u00e9cup\u00e9ratrice", "locality": ["Nimes"], "streetAdress": [], "link": [], "mail": [], "postalCode": ["30000"], "position": [], "type": ["AUTOMATE-DISTRIBOX"]},
{"tel": ["04 66 36 00 12 (g\u00e9r\u00e9 par Aides)"], "name": "Distributeur-Echangeur", "locality": ["Nimes"], "streetAdress": [], "link": [], "mail": [], "postalCode": ["30000"], "position": [], "type": ["AUTOMATE-DISTRIBOX"]},
{"tel": ["04 66 36 00 12"], "name": "ASUD Nimes", "locality": ["NIMES"], "streetAdress": ["6 bis rue Notre Dame", "\n"], "link": [], "mail": [], "postalCode": ["30000"], "position": [], "type": ["CAARUD"]},
{"tel": ["04 66 76 06 51 / Fax : 04 66 76 07 52"], "name": "ARAP Rubis", "locality": ["N\u00eemes"], "streetAdress": ["Actions m\u00e9dico-sociales avec les personnes prostitu\u00e9es", "\n23 rue de Beaucaire"], "link": ["http://arap-rubis.site.voila.fr"], "mail": [], "postalCode": ["30000"], "position": [], "type": ["PROGRAMME ECHANGE DE SERINGUES"]},
{"tel": ["04 66 21 07 89"], "name": "LOGOS Accueil", "locality": ["NIMES"], "streetAdress": ["8, rue Tedenat", "\n"], "link": [], "mail": [], "postalCode": ["30900"], "position": [], "type": ["CAARUD/CSAPA"]},
{"tel": ["05 55 06 18 19 / 06 18 24 08 17"], "name": "CAARUD L'\u00e9tape", "locality": ["Limoges"], "streetAdress": ["55, rue Jules BOBILLOT", "\n"], "link": [], "mail": [], "postalCode": ["87000"], "position": [], "type": ["CAARUD"]},
{"tel": ["02 47 51 24 55 (g\u00e9r\u00e9 par le service Hygi\u00e8ne de la Mairie de Tours)"], "name": "Echangeur", "locality": ["Tours"], "streetAdress": [], "link": [], "mail": [], "postalCode": ["37000"], "position": [], "type": ["AUTOMATE-DISTRIBOX"]},
{"tel": ["02 47 51 24 55 (g\u00e9r\u00e9 par le service Hygi\u00e8ne de la Mairie de Tours)"], "name": "Distributeur-Echangeur", "locality": ["Tours"], "streetAdress": [], "link": [], "mail": [], "postalCode": ["37000"], "position": [], "type": ["AUTOMATE-DISTRIBOX"]},
{"tel": ["02 47 38 43 18 / 06 35 17 62 66."], "name": "AIDES Indre et Loire", "locality": ["TOURS"], "streetAdress": ["310 rue d'Entraigues", "\n"], "link": [], "mail": [], "postalCode": ["37000"], "position": [], "type": ["CAARUD"]},
{"tel": ["03 22 72 02 18 (g\u00e9r\u00e9 par le Caarud La Parenth\u00e8se)"], "name": "Distributeur-Echangeur", "locality": ["Amiens"], "streetAdress": [], "link": [], "mail": [], "postalCode": ["80000"], "position": [], "type": ["AUTOMATE-DISTRIBOX"]},
{"tel": ["03 22 72 02 18 (g\u00e9r\u00e9 par le Caarud La Parenth\u00e8se)"], "name": "Distributeur-Echangeur", "locality": ["Amiens"], "streetAdress": [], "link": [], "mail": [], "postalCode": ["80000"], "position": [], "type": ["AUTOMATE-DISTRIBOX"]},
{"tel": ["03 22 72 02 18 (g\u00e9r\u00e9 par le Caarud La Parenth\u00e8se)"], "name": "Distributeur-Echangeur", "locality": ["Amiens"], "streetAdress": [], "link": [], "mail": [], "postalCode": ["80000"], "position": [], "type": ["AUTOMATE-DISTRIBOX"]},
{"tel": ["03 22 72 02 18"], "name": "La Parenth\u00e8se", "locality": ["AMIENS"], "streetAdress": ["47, boulevard du Cange", "\n"], "link": ["http://www.assoc-lemail.net"], "mail": [], "postalCode": ["80000"], "position": [], "type": ["CAARUD"]},
{"tel": ["03 87 75 10 42 (g\u00e9r\u00e9 par le Caarud Aides Moselle)"], "name": "Distributeur-Echangeur", "locality": ["Metz"], "streetAdress": [], "link": [], "mail": [], "postalCode": ["57000"], "position": [], "type": ["AUTOMATE-DISTRIBOX"]},
{"tel": ["03 87 75 10 42 (g\u00e9r\u00e9 par le Caarud Aides Moselle)"], "name": "Distributeur-Echangeur", "locality": ["Metz"], "streetAdress": [], "link": [], "mail": [], "postalCode": ["57000"], "position": [], "type": ["AUTOMATE-DISTRIBOX"]},
{"tel": ["03 87 74 41 58"], "name": "Le Point de Contact", "locality": ["METZ"], "streetAdress": ["26, rue Wad Billy", "\n"], "link": [], "mail": [], "postalCode": ["57000"], "position": [], "type": ["CAARUD"]},
{"tel": ["03 87 75 10 42"], "name": "AIDES Moselle", "locality": ["METZ"], "streetAdress": ["2 rue lafayette", "\n"], "link": [], "mail": [], "postalCode": ["57000"], "position": [], "type": ["CAARUD"]},
{"tel": ["06 88 22 39 18"], "name": "SEDAP", "locality": ["DIJON"], "streetAdress": ["30, boulevard de Strasbourg (locaux administratif)", "\n"], "link": [], "mail": [], "postalCode": ["21000"], "position": [], "type": ["CAARUD"]},
{"tel": ["06 88 22 39 18 pour avoir la liste des pharmacies participantes Voir aussi le site ", "Retox21", " pour la liste des pharmacies"], "name": "PES en pharmacie de Cote d'Or", "locality": ["DIJON"], "streetAdress": ["G\u00e9r\u00e9 par la Sedap", "\n30, boulevard de Strasbourg"], "link": [], "mail": [], "postalCode": ["21000"], "position": [], "type": ["PROGRAMME \u00c9CHANGE DE SERINGUES EN PHARMACIE"]},
{"tel": ["03 81 81 80 00"], "name": "AIDES 25", "locality": ["BESANCON"], "streetAdress": ["3 rue ronchaux", "\n"], "link": [], "mail": [], "postalCode": ["25000"], "position": [], "type": ["CAARUD"]},
{"tel": ["03 81 83 03 32 / fax :03 81 83 03 04"], "name": "du CSAPA Solea", "locality": ["BESANCON"], "streetAdress": ["2 place Ren\u00e9 Payot", "\n"], "link": [], "mail": [], "postalCode": ["25000"], "position": [], "type": ["PROGRAMME ECHANGE DE SERINGUES"]},
{"tel": ["06 30 85 92 55 (Pour obtenir la listes des pharmacies participantes)"], "name": "PES en pharmacie des d\u00e9partements 25, 90, 70", "locality": [], "streetAdress": ["Programme g\u00e9r\u00e9 par le R\u00e9seau Toxicomanie Ville H\u00f4pital (RTVH)", "\nBP6", "\r\n70400 H\u00e9ricoourt"], "link": [], "mail": [], "postalCode": ["25000"], "position": [], "type": ["PROGRAMME \u00c9CHANGE DE SERINGUES EN PHARMACIE"]},
{"tel": ["04 68 68 31 41 / Fax : 04 68 68 31 42"], "name": "ASCODE - Programme d'accueil", "locality": ["PERPIGNAN"], "streetAdress": ["6 rue du Mas Jaubert", "\n"], "link": [], "mail": [], "postalCode": ["66000"], "position": [], "type": ["CAARUD"]},
{"tel": ["04 68 68 31 41 pour avoir la liste des pharmacies participantes (ou \u00e9crire \u00e0 ascode@free.fr)"], "name": "Ascode - Programme d'\u00e9change de seringues en pharmacie", "locality": ["PERPIGNAN"], "streetAdress": ["12, rue de la Tonnelerie", "\n"], "link": [], "mail": [], "postalCode": ["66000"], "position": [], "type": ["CAARUD"]},
{"tel": ["04 68 68 31 41 / Fax : 04 68 68 31 42"], "name": "ASCODE - Programme d'accompagnement", "locality": ["Perpignan"], "streetAdress": ["6 rue du Mas Jaubert", "\n"], "link": [], "mail": [], "postalCode": ["66000"], "position": [], "type": ["CAARUD"]},
{"tel": ["02 38 77 00 27"], "name": "Asud Loiret", "locality": ["Orl\u00e9ans"], "streetAdress": ["63 rue Bannier", "\n"], "link": [], "mail": [], "postalCode": ["45000"], "position": [], "type": ["PROGRAMME ECHANGE DE SERINGUES"]},
{"tel": ["02 38 53 30 31"], "name": "Aides Loiret", "locality": ["ORLEANS"], "streetAdress": ["7, rue Vandebergue de Villiers", "\n"], "link": [], "mail": [], "postalCode": ["45000"], "position": [], "type": ["PROGRAMME ECHANGE DE SERINGUES"]},
{"tel": ["02 38 62 64 62"], "name": "APLEAT (SACADOS)", "locality": ["ORLEANS"], "streetAdress": ["1, rue sainte Anne", "\n"], "link": [], "mail": [], "postalCode": ["45000"], "position": [], "type": ["CAARUD/CSAPA"]},
{"tel": ["01 46 45 61 46 (g\u00e9r\u00e9 par Chim\u00e8ne)"], "name": "Distributeur", "locality": ["Boulogne Billancourt"], "streetAdress": [], "link": [], "mail": [], "postalCode": ["92100"], "position": [], "type": ["AUTOMATE-DISTRIBOX"]},
{"tel": ["01 46 45 61 46 (g\u00e9r\u00e9 par Chim\u00e8ne)"], "name": "Distributeur", "locality": ["Boulogne Billancourt"], "streetAdress": [], "link": [], "mail": [], "postalCode": ["92100"], "position": [], "type": ["AUTOMATE-DISTRIBOX"]},
{"tel": ["03 83 45 54 46 (g\u00e9r\u00e9 par le Caarud  68)"], "name": "Distributeur-Echangeur", "locality": ["Mulhouse"], "streetAdress": [], "link": [], "mail": [], "postalCode": ["68100"], "position": [], "type": ["AUTOMATE-DISTRIBOX"]},
{"tel": ["03 83 45 54 46 (g\u00e9r\u00e9 par le Caarud  68)"], "name": "Echangeur-R\u00e9cup\u00e9rateur", "locality": ["Mulhouse"], "streetAdress": [], "link": [], "mail": [], "postalCode": ["68100"], "position": [], "type": ["AUTOMATE-DISTRIBOX"]},
{"tel": ["03 89 59 87 60"], "name": "Boutique B\u00e9mol", "locality": ["MULHOUSE"], "streetAdress": ["10 avenue Robert Schuman", "\n"], "link": [], "mail": [], "postalCode": ["68100"], "position": [], "type": ["CAARUD"]},
{"tel": ["03 89 45 54 46 / 09 54 60 07 85 / Fax :03 89 66 17 13"], "name": "Caarud 68", "locality": ["MULHOUSE"], "streetAdress": ["19A rue Engel DOLLFUS", "\n"], "link": [], "mail": [], "postalCode": ["68100"], "position": [], "type": ["CAARUD"]},
{"tel": ["02 31 86 82 82 (g\u00e9r\u00e9 par Sid'acceuil basse normandie)"], "name": "Distributeur-Echangeur", "locality": ["Caen"], "streetAdress": [], "link": [], "mail": [], "postalCode": ["14000"], "position": [], "type": ["AUTOMATE-DISTRIBOX"]},
{"tel": ["02 31 86 82 82 (g\u00e9r\u00e9 par Sid'acceuil Basse Normandie)"], "name": "Distributeur-Echangeur", "locality": ["Caen"], "streetAdress": [], "link": [], "mail": [], "postalCode": ["14000"], "position": [], "type": ["AUTOMATE-DISTRIBOX"]},
{"tel": ["02 31 72 28 75"], "name": "CAARUD", "locality": ["Caen"], "streetAdress": ["26 Rue Neuve Bourg l'Abb\u00e9", "\n"], "link": ["http://www.epsm-caen.fr"], "mail": [], "postalCode": ["14000"], "position": ["maps.google.com?q=49.181762,-0.3794\""], "type": ["CAARUD"]},
{"tel": ["02 35 70 41 20 (g\u00e9r\u00e9 par la Boussole)"], "name": "Distributeur", "locality": ["Rouen"], "streetAdress": [], "link": [], "mail": [], "postalCode": ["76000"], "position": [], "type": ["AUTOMATE-DISTRIBOX"]},
{"tel": ["02 35 70 41 20 (g\u00e9r\u00e9 par la Boussole)"], "name": "Distributeur", "locality": ["Rouen"], "streetAdress": [], "link": [], "mail": [], "postalCode": ["76000"], "position": [], "type": ["AUTOMATE-DISTRIBOX"]},
{"tel": ["02 35 70 41 20 (g\u00e9r\u00e9 par la Boussole)"], "name": "Distributeur-Echangeur", "locality": ["Rouen"], "streetAdress": [], "link": [], "mail": [], "postalCode": ["76000"], "position": [], "type": ["AUTOMATE-DISTRIBOX"]},
{"tel": ["02 35 70 41 20 (g\u00e9r\u00e9 par la Boussole)"], "name": "Distributeur", "locality": ["Rouen Saint Sever"], "streetAdress": [], "link": [], "mail": [], "postalCode": ["76000"], "position": [], "type": ["AUTOMATE-DISTRIBOX"]},
{"tel": ["02 35 70 41 20 / Fax : 02 35 71 42 58\r\n\t"], "name": "La Boutik", "locality": ["ROUEN"], "streetAdress": ["20, rue Georges Amboise", "\n"], "link": ["http://www.laboussole.asso.fr"], "mail": [], "postalCode": ["76000"], "position": [], "type": ["CAARUD"]},
{"tel": ["02 35 07 56 56"], "name": "AIDES", "locality": ["ROUEN"], "streetAdress": ["23 rue du fardeau", "\n"], "link": [], "mail": [], "postalCode": ["76000"], "position": [], "type": ["CAARUD"]},
{"tel": ["01 40 09 04 45 (g\u00e9r\u00e9 par Safe)"], "name": "Distributeur", "locality": ["Saint Denis"], "streetAdress": [], "link": [], "mail": [], "postalCode": ["93200"], "position": ["maps.google.com?q=48.93506,2.34697\""], "type": ["AUTOMATE-DISTRIBOX"]},
{"tel": ["01 40 09 04 45 (g\u00e9r\u00e9 par Safe)"], "name": "Distributeur-Echangeur", "locality": ["Saint Denis"], "streetAdress": [], "link": [], "mail": [], "postalCode": ["93200"], "position": ["maps.google.com?q=48.93597,2.37285\""], "type": ["AUTOMATE-DISTRIBOX"]},
{"tel": ["01 40 09 04 45 (g\u00e9r\u00e9 par Safe)"], "name": "Distributeur", "locality": ["Saint Denis"], "streetAdress": [], "link": [], "mail": [], "postalCode": ["93200"], "position": ["maps.google.com?q=48.94596,2.3659\""], "type": ["AUTOMATE-DISTRIBOX"]},
{"tel": ["01 40 09 04 45 (g\u00e9r\u00e9 par Safe)"], "name": "Distributeur", "locality": ["Saint Denis"], "streetAdress": [], "link": [], "mail": [], "postalCode": ["93200"], "position": ["maps.google.com?q=48.92991,2.36065\""], "type": ["AUTOMATE-DISTRIBOX"]},
{"tel": ["01 41 83 81 60"], "name": "AIDES 93", "locality": ["Saint Denis"], "streetAdress": ["14, passage de l'aqueduc", "\n"], "link": [], "mail": [], "postalCode": ["93200"], "position": [], "type": ["CAARUD"]},
{"tel": ["03 28 33 91 40 g\u00e9r\u00e9 par le Carrud Le Relais"], "name": "Distributeur-Echangeur", "locality": ["Roubaix"], "streetAdress": [], "link": [], "mail": [], "postalCode": ["59100"], "position": [], "type": ["AUTOMATE-DISTRIBOX"]},
{"tel": ["03 28 33 91 40"], "name": "Le Relais point fixe", "locality": ["ROUBAIX"], "streetAdress": ["40, rue saint Antoine (M\u00e9tro Eurot\u00e9l\u00e9port Terminus tramway)", "\n"], "link": [], "mail": [], "postalCode": ["59100"], "position": [], "type": ["CAARUD"]},
{"tel": ["02 62 45 26 55 / 06 92 23 04 99"], "name": "La Kaz'Ot\u00e9", "locality": ["SAINT PAUL"], "streetAdress": ["316, rue saint louis", "\n"], "link": ["https://www.facebook.com/pages/Kaz-Ot%C3%A9-CsapaCaarud-r%C3%A9seau-Ot%C3%A9-ville-h%C3%B4pital-974/349004351962473?fref=ts"], "mail": [], "postalCode": ["97460"], "position": [], "type": ["CAARUD/CSAPA"]},
{"tel": ["01 39 80 34 34"], "name": "AIDES Val d'Oise", "locality": ["ARGENTEUIL"], "streetAdress": ["122, Avenue Jean Jaur\u00e9s", "\n"], "link": [], "mail": [], "postalCode": ["95100"], "position": [], "type": ["CAARUD"]},
{"tel": [], "name": "Poubelle r\u00e9cup\u00e9ratrice", "locality": ["Fort Mardyck"], "streetAdress": [], "link": [], "mail": [], "postalCode": ["59430"], "position": [], "type": ["AUTOMATE-DISTRIBOX"]},
{"tel": [], "name": "Poubelle r\u00e9cup\u00e9ratrice", "locality": ["Fort Mardyck"], "streetAdress": [], "link": [], "mail": [], "postalCode": ["59430"], "position": [], "type": ["AUTOMATE-DISTRIBOX"]},
{"tel": [], "name": "Poubelle r\u00e9cup\u00e9ratrice", "locality": ["Saint Pol sur Mer"], "streetAdress": [], "link": [], "mail": [], "postalCode": ["59430"], "position": [], "type": ["AUTOMATE-DISTRIBOX"]},
{"tel": ["01 43 60 33 22 (g\u00e9r\u00e9 par Proses)"], "name": "Distributeur-Echangeur", "locality": ["Montreuil"], "streetAdress": [], "link": [], "mail": [], "postalCode": ["93100"], "position": [], "type": ["AUTOMATE-DISTRIBOX"]},
{"tel": ["01 43 60 33 22"], "name": "Proses", "locality": ["Montreuil"], "streetAdress": ["89 bis, rue Alexis Pesnom", "\n"], "link": [], "mail": [], "postalCode": ["93100"], "position": ["maps.google.fr/maps?q=Proses+89+bis,+rue+Alexis+Pesnom+93100+Montreuil&amp;hl=fr&amp;ll=48.863896,2.436604&amp;spn=0.009542,0.024762&amp;sll=48.858859,2.34706&amp;sspn=0.152693,0.396194&amp;hq=Proses+89+bis,&amp;hnear=Rue+Alexis+Pesnon,+93100+Montreuil&amp;t=m&amp;z=16&amp;iwloc=A\""], "type": ["CAARUD"]},
{"tel": ["03 28 51 23 60"], "name": "MEDIANE", "locality": ["Dunkerque"], "streetAdress": ["32, rue Maringo", "\n"], "link": ["http://associationmichel.fr"], "mail": [], "postalCode": ["59140"], "position": [], "type": ["CAARUD"]},
{"tel": ["04 73 99 01 01 (g\u00e9r\u00e9 par Aides 63)"], "name": "Distributeur-Echangeur", "locality": ["Clermont-Ferrand"], "streetAdress": [], "link": [], "mail": [], "postalCode": ["63000"], "position": [], "type": ["AUTOMATE-DISTRIBOX"]},
{"tel": ["04 73 99 01 01 (g\u00e9r\u00e9 par Aides 63)"], "name": "Distributeur-Echangeur", "locality": ["Clermont-Ferrand"], "streetAdress": [], "link": [], "mail": [], "postalCode": ["63000"], "position": [], "type": ["AUTOMATE-DISTRIBOX"]},
{"tel": ["04 73 99 01 01 / 06 13 92 78 60"], "name": "Aides 63", "locality": ["Clermont Ferrand"], "streetAdress": ["9 rue de la boucherie", "\n"], "link": [], "mail": [], "postalCode": ["63000"], "position": [], "type": ["CAARUD"]},
{"tel": ["04 73 34 74 80"], "name": "CSAPA Anpaa 63", "locality": ["Clermont-Ferrand"], "streetAdress": ["80 boulevard Fran\u00e7ois Mitterrand", "\n"], "link": [], "mail": [], "postalCode": ["63000"], "position": [], "type": ["PROGRAMME ECHANGE DE SERINGUES"]},
{"tel": ["03 20 46 01 10"], "name": "REAGIR", "locality": ["TOURCOING"], "streetAdress": ["117, rue de Dunkerque (Tramway : Arret la Victoire)", "\n"], "link": [], "mail": [], "postalCode": ["59200"], "position": [], "type": ["CAARUD"]},
{"tel": ["04 90 86 80 80 (g\u00e9r\u00e9 par Aides 84)"], "name": "Distributeur-Echangeur", "locality": ["Avignon"], "streetAdress": [], "link": [], "mail": [], "postalCode": ["84000"], "position": [], "type": ["AUTOMATE-DISTRIBOX"]},
{"tel": ["04 90 86 80 80 (g\u00e9r\u00e9 par Aides 84)"], "name": "Distributeur-Echangeur", "locality": ["Avignon"], "streetAdress": [], "link": [], "mail": [], "postalCode": ["84000"], "position": [], "type": ["AUTOMATE-DISTRIBOX"]},
{"tel": ["04 90 82 15 94 / fax : 04 90 85 64 23\r\n"], "name": "Le Patio", "locality": ["AVIGNON"], "streetAdress": ["14 boulevard Emile Desfons", "\n"], "link": [], "mail": [], "postalCode": ["84000"], "position": [], "type": ["CAARUD"]},
{"tel": ["04 90 86 80 80"], "name": "La Boutik (Aides 84)", "locality": ["AVIGNON"], "streetAdress": ["41, rue du Portail Magnanen", "\n"], "link": [], "mail": [], "postalCode": ["84000"], "position": [], "type": ["CAARUD"]},
{"tel": ["01 40 09 04 45 (g\u00e9r\u00e9 par Safe)"], "name": "Distributeur", "locality": ["Nanterre"], "streetAdress": [], "link": [], "mail": [], "postalCode": ["92000"], "position": ["maps.google.com?q=48.91312,2.22572\""], "type": ["AUTOMATE-DISTRIBOX"]},
{"tel": ["01 40 09 04 45 (g\u00e9r\u00e9 par Safe)"], "name": "Distributeur-Echangeur", "locality": ["Nanterre"], "streetAdress": [], "link": [], "mail": [], "postalCode": ["92000"], "position": ["maps.google.com?q=48.89789,2.19886\""], "type": ["AUTOMATE-DISTRIBOX"]},
{"tel": ["01 48 99 65 26 (g\u00e9r\u00e9 par Drogues et Soci\u00e9t\u00e9)"], "name": "Distributeur", "locality": ["Cr\u00e9teil"], "streetAdress": [], "link": [], "mail": [], "postalCode": ["94000"], "position": [], "type": ["AUTOMATE-DISTRIBOX"]},
{"tel": ["01 48 99 65 26 (g\u00e9r\u00e9 par Drogues et Soci\u00e9t\u00e9)"], "name": "Distributeur", "locality": ["Cr\u00e9teil"], "streetAdress": [], "link": [], "mail": [], "postalCode": ["94000"], "position": [], "type": ["AUTOMATE-DISTRIBOX"]},
{"tel": ["01 48 99 65 26 (g\u00e9r\u00e9 par Drogues et Soci\u00e9t\u00e9)"], "name": "Distributeur", "locality": ["Cr\u00e9teil"], "streetAdress": [], "link": [], "mail": [], "postalCode": ["94000"], "position": [], "type": ["AUTOMATE-DISTRIBOX"]},
{"tel": ["G\u00e9r\u00e9 par la Mairie de Vitry sur Seine"], "name": "Distributeur-Echangeur", "locality": ["Vitry sur Seine"], "streetAdress": [], "link": [], "mail": [], "postalCode": ["94400"], "position": [], "type": ["AUTOMATE-DISTRIBOX"]},
{"tel": ["G\u00e9r\u00e9 par la Mairie de Vitry sur Seine"], "name": "Distributeur-Echangeur", "locality": ["Vitry sur Seine"], "streetAdress": [], "link": [], "mail": [], "postalCode": ["94400"], "position": [], "type": ["AUTOMATE-DISTRIBOX"]},
{"tel": ["G\u00e9r\u00e9 par la Mairie de Vitry sur Seine"], "name": "Distributeur-Echangeur", "locality": ["Vitry sur Seine"], "streetAdress": [], "link": [], "mail": [], "postalCode": ["94400"], "position": [], "type": ["AUTOMATE-DISTRIBOX"]},
{"tel": ["01 46 81 44 44"], "name": "Aides 94", "locality": ["Vitry sur Seine"], "streetAdress": ["2 avenue de la Commune de Paris", "\n"], "link": [], "mail": [], "postalCode": ["94400"], "position": [], "type": ["PROGRAMME ECHANGE DE SERINGUES"]},
{"tel": ["05 59 83 92 93 / 06 29 12 42 56"], "name": "AIDES Bearn - Le Scud", "locality": ["PAU"], "streetAdress": ["4, rue Serviez", "\n"], "link": [], "mail": [], "postalCode": ["64000"], "position": ["maps.google.com/maps?q=43.296949,-0.368474\""], "type": ["CAARUD"]},
{"tel": ["05 59 27 42 43 (pour avoir la liste des pharmacies participantes)"], "name": "PES en pharmacie du 64", "locality": ["Pau"], "streetAdress": ["G\u00e9r\u00e9 par B\u00e9arn Addiction", "\n23 rue Mar\u00e9chal Joffre"], "link": [], "mail": [], "postalCode": ["64000"], "position": [], "type": ["PROGRAMME \u00c9CHANGE DE SERINGUES EN PHARMACIE"]},
{"tel": ["01 40 09 04 45 (g\u00e9r\u00e9 par Safe)"], "name": "Distributeur-Echangeur", "locality": ["Colombes"], "streetAdress": [], "link": [], "mail": [], "postalCode": ["92700"], "position": ["maps.google.com?q=48.92247,2.25362\""], "type": ["AUTOMATE-DISTRIBOX"]},
{"tel": ["01 40 09 04 45 (g\u00e9r\u00e9 par Safe)"], "name": "Distributeur-Echangeur", "locality": ["Colombes"], "streetAdress": [], "link": [], "mail": [], "postalCode": ["92700"], "position": [], "type": ["AUTOMATE-DISTRIBOX"]},
{"tel": ["01 40 09 04 45 (g\u00e9r\u00e9 par Safe)"], "name": "Distributeur-Echangeur", "locality": ["Colombes"], "streetAdress": [], "link": [], "mail": [], "postalCode": ["92700"], "position": ["maps.google.com?q=48.92365,2.23677\""], "type": ["AUTOMATE-DISTRIBOX"]},
{"tel": ["01 40 09 04 45 (g\u00e9r\u00e9 par Safe)"], "name": "Distributeur-Echangeur", "locality": ["Colombes"], "streetAdress": [], "link": [], "mail": [], "postalCode": ["92700"], "position": ["maps.google.com?q=48.93196,2.26647\""], "type": ["AUTOMATE-DISTRIBOX"]},
{"tel": ["01 47 86 08 90"], "name": "Sida Paroles", "locality": ["Colombes"], "streetAdress": ["8-10 rue Victor Hugo", "\n"], "link": ["http://www.sidaparoles.org"], "mail": [], "postalCode": ["92700"], "position": [], "type": ["CAARUD"]},
{"tel": ["01 48 19 60 13 (g\u00e9r\u00e9 par l'association FIRST)"], "name": "Distributeur-Echangeur", "locality": ["Aulnay sous Bois"], "streetAdress": [], "link": [], "mail": [], "postalCode": ["93600"], "position": ["maps.google.com/maps?q=48.951558,2.526438\""], "type": ["AUTOMATE-DISTRIBOX"]},
{"tel": ["01 48 19 60 13"], "name": "First", "locality": ["Aulnay sous Bois"], "streetAdress": ["14, rue Joseph Berger", "\n"], "link": [], "mail": [], "postalCode": ["93600"], "position": ["maps.google.com/maps?q=48.951558,2.526438\""], "type": ["CAARUD"]},
{"tel": ["04 93 16 00 49 (g\u00e9r\u00e9 par le Caarud Entractes)"], "name": "Distributeur-Echangeur", "locality": ["Antibes"], "streetAdress": [], "link": [], "mail": [], "postalCode": ["6600"], "position": [], "type": ["AUTOMATE-DISTRIBOX"]},
{"tel": ["04 93 16 00 49 (g\u00e9r\u00e9 par le Caarud Entractes)"], "name": "Poubelle R\u00e9cup\u00e9ratrice", "locality": ["Antibes"], "streetAdress": [], "link": [], "mail": [], "postalCode": ["6600"], "position": [], "type": ["AUTOMATE-DISTRIBOX"]},
{"tel": ["04 93 16 00 49 (g\u00e9r\u00e9 par le Caarud Entractes)"], "name": "Poubelle R\u00e9cup\u00e9ratrice", "locality": ["Juan les Pins"], "streetAdress": [], "link": [], "mail": [], "postalCode": ["6600"], "position": [], "type": ["AUTOMATE-DISTRIBOX"]},
{"tel": ["04 93 33 26 82 / fax : 04 93 74 44 86"], "name": "du Csapa", "locality": ["Antibes"], "streetAdress": ["6-14 avenue Reibaud", "\n"], "link": [], "mail": [], "postalCode": ["6600"], "position": [], "type": ["PROGRAMME ECHANGE DE SERINGUES"]},
{"tel": ["05 46 68 57 93 (g\u00e9r\u00e9 par le Caarud 17)"], "name": "Distributeur-Echangeur", "locality": ["La Rochelle"], "streetAdress": [], "link": [], "mail": [], "postalCode": ["17000"], "position": [], "type": ["AUTOMATE-DISTRIBOX"]},
{"tel": ["06 35 21 45 99"], "name": "CAARUD 17", "locality": ["LA ROCHELLE"], "streetAdress": ["19, rue Buffeterie", "\n"], "link": [], "mail": [], "postalCode": ["17000"], "position": [], "type": ["CAARUD"]},
{"tel": ["05 46 29 86 41"], "name": "Aides Charente-Maritime", "locality": ["La Rochelle"], "streetAdress": ["Centre associatif des Cordeliers", "\n21 avenue des Cordeliers"], "link": [], "mail": [], "postalCode": ["17000"], "position": [], "type": ["PROGRAMME ECHANGE DE SERINGUES"]},
{"tel": ["03 62 78 01 19 ou 06 67 92 53 94"], "name": "CAARUD \u00ab\u00a0Pazapa\u00a0\u00bb", "locality": ["Calais"], "streetAdress": ["14 rue F\u00e9lix Cadras", "\n"], "link": [], "mail": [], "postalCode": ["62100"], "position": ["maps.google.com/maps?q=50.957234,1.848616\""], "type": ["CAARUD"]},
{"tel": ["01 45 16 38 53 (g\u00e9r\u00e9 par Visa 94)"], "name": "Distributeur", "locality": ["Champigny sur Marne"], "streetAdress": [], "link": [], "mail": [], "postalCode": ["94500"], "position": [], "type": ["AUTOMATE-DISTRIBOX"]},
{"tel": ["01 45 16 38 53 (g\u00e9r\u00e9 par Visa 94)"], "name": "Distributeur", "locality": ["Champigny sur Marne"], "streetAdress": [], "link": [], "mail": [], "postalCode": ["94500"], "position": [], "type": ["AUTOMATE-DISTRIBOX"]},
{"tel": ["01 45 16 38 53 (g\u00e9r\u00e9 par Visa 94)"], "name": "Distributeur", "locality": ["Champigny sur Marne"], "streetAdress": [], "link": [], "mail": [], "postalCode": ["94500"], "position": [], "type": ["AUTOMATE-DISTRIBOX"]},
{"tel": ["01 45 16 38 53 (g\u00e9r\u00e9 par Visa 94)"], "name": "Distributeur-Echangeur", "locality": ["Champigny sur Marne"], "streetAdress": [], "link": [], "mail": [], "postalCode": ["94500"], "position": [], "type": ["AUTOMATE-DISTRIBOX"]},
{"tel": ["01 45 16 38 53 (g\u00e9r\u00e9 par Visa 94)"], "name": "Distributeur-Echangeur", "locality": ["Champigny sur Marne"], "streetAdress": [], "link": [], "mail": [], "postalCode": ["94500"], "position": [], "type": ["AUTOMATE-DISTRIBOX"]},
{"tel": ["01 45 16 38 53"], "name": "Visa 94", "locality": ["Champigny sur Marne"], "streetAdress": ["1 boulevard Jules Guesde", "\n"], "link": ["http://www.visa94.org"], "mail": [], "postalCode": ["94500"], "position": [], "type": ["CAARUD"]},
{"tel": ["01 45 16 38 53 pour avoir la liste des pharmacies participantes (plus de 100 officines de pharmacies  distribuent gratuitement kits d'injection ou jetons)"], "name": "PES en pharmacie du sud-est Val de Marnais", "locality": ["Champigny sur Marne"], "streetAdress": ["Programme g\u00e9r\u00e9 par Visa94", "\n1 boulevard Jules Guesde"], "link": [], "mail": [], "postalCode": ["94500"], "position": [], "type": ["PROGRAMME \u00c9CHANGE DE SERINGUES EN PHARMACIE"]},
{"tel": ["Tel : 01 40 09 04 45 (g\u00e9r\u00e9 par Safe)"], "name": "Distributeur-Echangeur", "locality": ["Aubervilliers"], "streetAdress": [], "link": [], "mail": [], "postalCode": ["93300"], "position": ["maps.google.com/?q=48.914106,2.403079\""], "type": ["AUTOMATE-DISTRIBOX"]},
{"tel": ["G\u00e9r\u00e9 par la Mairie D'Aubervilliers"], "name": "Distributeur-Echangeur", "locality": ["Aubervilliers"], "streetAdress": [], "link": [], "mail": [], "postalCode": ["93300"], "position": ["maps.google.com?q=48.90689,2.389\""], "type": ["AUTOMATE-DISTRIBOX"]},
{"tel": ["06 40 74 33 83 / 06 40 74 33 80"], "name": "Caarud Aurore Aubervilliers 93", "locality": ["Aubervilliers"], "streetAdress": ["46 rue Charles Tillon", "\n"], "link": [], "mail": [], "postalCode": ["93300"], "position": [], "type": ["CAARUD"]},
{"tel": ["04 93 16 00 49 (g\u00e9r\u00e9 par le Caarud Entractes)"], "name": "Distributeur-Echangeur", "locality": ["Cannes"], "streetAdress": [], "link": [], "mail": [], "postalCode": ["6400"], "position": [], "type": ["AUTOMATE-DISTRIBOX"]},
{"tel": ["04 67 28 54 82 (g\u00e9r\u00e9 par Aides)"], "name": "Distributeur-Echangeur", "locality": ["B\u00e9ziers"], "streetAdress": [], "link": [], "mail": [], "postalCode": ["34500"], "position": ["maps.google.com/maps?q=43.346592,3.230176\""], "type": ["AUTOMATE-DISTRIBOX"]},
{"tel": ["04 67 28 54 82"], "name": "AIDES", "locality": ["BEZIERS"], "streetAdress": ["2 bis avenue Saint Saens", "\n"], "link": [], "mail": [], "postalCode": ["34500"], "position": [], "type": ["CAARUD"]},
{"tel": ["06 40 60 18 69"], "name": "CAARUD 108", "locality": ["Bourges"], "streetAdress": ["108 rue Edouard Vaillant", "\n"], "link": ["https://www.facebook.com/caarud18?fref=ts"], "mail": [], "postalCode": ["18000"], "position": [], "type": ["CAARUD"]},
{"tel": ["02 40 01 96 12 (Caarud La Rose des Vents)"], "name": "Distributeur-Echangeur", "locality": ["Saint Nazaire"], "streetAdress": [], "link": [], "mail": [], "postalCode": ["44600"], "position": [], "type": ["AUTOMATE-DISTRIBOX"]},
{"tel": ["02 40 01 96 12"], "name": "La Rose des Vents", "locality": ["SAINT NAZAIRE"], "streetAdress": ["32, rue Roger salengro", "\n"], "link": [], "mail": [], "postalCode": ["44600"], "position": [], "type": ["CAARUD"]},
{"tel": ["02 40 01 96 12 (Pour obtenir la listes des pharmacies participantes)"], "name": "PES en pharmacie ", "locality": ["ST NAZAIRE"], "streetAdress": ["R\u00e9seau de pharmaciens (distribution de kits gratuits) pilot\u00e9 par le CAARUD/CSAPA La Rose des Vents", "\n32, rue Roger Salengro"], "link": [], "mail": [], "postalCode": ["44600"], "position": [], "type": ["PROGRAMME \u00c9CHANGE DE SERINGUES EN PHARMACIE"]},
{"tel": ["03 89 24 94 71"], "name": "du CSAPA Argile ", "locality": ["Colmar"], "streetAdress": ["15 rue de Peyerimhoff", "\n"], "link": [], "mail": [], "postalCode": ["68000"], "position": [], "type": ["PROGRAMME ECHANGE DE SERINGUES"]},
{"tel": ["04 95 21 85 85"], "name": "ANPAA 2A - A ZIMA", "locality": ["AJACCIO"], "streetAdress": ["Immeuble SAMPOLO", "\n28 Avenue Colonel Colonna d'Ornano"], "link": [], "mail": [], "postalCode": ["20000"], "position": [], "type": ["CAARUD"]},
{"tel": ["04 75 40 17 70 (g\u00e9r\u00e9 par le Caarud Tempo)"], "name": "Distributeur-Echangeur", "locality": ["Valence"], "streetAdress": [], "link": [], "mail": [], "postalCode": ["26000"], "position": [], "type": ["AUTOMATE-DISTRIBOX"]},
{"tel": ["04 75 40 17 70 - Caarud mobile 26 : 06 31 89 78 46"], "name": "TEMPO", "locality": ["VALENCE"], "streetAdress": ["4, rue Amp\u00e8re", "\n"], "link": ["http://http://www.oppelia.fr/l%E2%80%99%C3%A9tablissement-tempo"], "mail": [], "postalCode": ["26000"], "position": [], "type": ["CAARUD/CSAPA"]},
{"tel": ["02 98 95 67 96 / 02-98-43-18-72"], "name": "Aides Quimper", "locality": ["QUIMPER"], "streetAdress": ["25 route de Brest", "\n"], "link": [], "mail": [], "postalCode": ["29000"], "position": [], "type": ["PROGRAMME ECHANGE DE SERINGUES"]},
{"tel": ["02 98 95 67 96 (Pour avoir la liste des pharmacies participantes)"], "name": "PESOF (Programme d'Echange de Seringue en Officine du Finist\u00e8re)", "locality": ["Quimper"], "streetAdress": ["Programme g\u00e9r\u00e9 par Aides", "\n18, rue Ste Catherine"], "link": [], "mail": [], "postalCode": ["29000"], "position": [], "type": ["PROGRAMME \u00c9CHANGE DE SERINGUES EN PHARMACIE"]},
{"tel": ["01 46 45 61 46 (g\u00e9r\u00e9 par Chim\u00e8ne)"], "name": "Distributeur", "locality": ["Issy les Moulineaux"], "streetAdress": [], "link": [], "mail": [], "postalCode": ["92130"], "position": [], "type": ["AUTOMATE-DISTRIBOX"]},
{"tel": ["01 46 45 61 46 (g\u00e9r\u00e9 par Chim\u00e8ne)"], "name": "Distributeur", "locality": ["Issy les Moulineaux"], "streetAdress": [], "link": [], "mail": [], "postalCode": ["92130"], "position": [], "type": ["AUTOMATE-DISTRIBOX"]},
{"tel": ["06 35 59 16 44"], "name": "AIDES 86", "locality": ["POITIERS"], "streetAdress": ["129 Bd Pont Achard ", "\n"], "link": [], "mail": [], "postalCode": ["86000"], "position": [], "type": ["CAARUD"]},
{"tel": ["05 49 42 45 45 ou 06 35 59 16 44 (pour avoir la liste des pharmacies participantes)"], "name": "PES en pharmacie du d\u00e9partement 86", "locality": ["Poitiers"], "streetAdress": ["CAARUD Aides 86", "\n129 Boulevard Pont"], "link": [], "mail": [], "postalCode": ["86000"], "position": [], "type": ["PROGRAMME \u00c9CHANGE DE SERINGUES EN PHARMACIE"]},
{"tel": ["03 25 80 56 01"], "name": "Accueil Liaison Toxicomanie", "locality": ["TROYES"], "streetAdress": ["49 Boulevard du 14 Juillet", "\n"], "link": [], "mail": [], "postalCode": ["10000"], "position": [], "type": ["CAARUD"]},
{"tel": ["01 40 09 04 45 (g\u00e9r\u00e9 par Safe)"], "name": "Distributeur-Echangeur", "locality": ["Antony"], "streetAdress": [], "link": [], "mail": [], "postalCode": ["92160"], "position": ["maps.google.com?q=48.74306,2.29652\""], "type": ["AUTOMATE-DISTRIBOX"]},
{"tel": ["01 39 93 66 67 (g\u00e9r\u00e9 par le Csapa RIVAGE)"], "name": "Distributeur", "locality": ["SARCELLES"], "streetAdress": [], "link": [], "mail": [], "postalCode": ["95200"], "position": [], "type": ["AUTOMATE-DISTRIBOX"]},
{"tel": ["01 40 09 04 45 (g\u00e9r\u00e9 par Safe)"], "name": "Distributeur-Echangeur", "locality": ["Clichy"], "streetAdress": [], "link": [], "mail": [], "postalCode": ["92110"], "position": ["maps.google.com?q=48.89928,2.31351\""], "type": ["AUTOMATE-DISTRIBOX"]},
{"tel": ["05 49 17 03 53 (Pour avoir la liste des pharmacies participantes)"], "name": "PES en pharmacies dans les Deux-S\u00e8vres", "locality": ["Niort"], "streetAdress": ["Programme g\u00e9r\u00e9 par le Caarud 79", "\n16 rue de Nambot"], "link": [], "mail": [], "postalCode": ["79000"], "position": [], "type": ["PROGRAMME \u00c9CHANGE DE SERINGUES EN PHARMACIE"]},
{"tel": ["05 49 17 03 53 / 06 35 43 16 54"], "name": "Caarud 79", "locality": ["NIORT Cedex"], "streetAdress": ["16, rue Nambot", "\n"], "link": [], "mail": [], "postalCode": ["79012"], "position": [], "type": ["CAARUD"]},
{"tel": ["03 23 51 39 59"], "name": "la k-f\u00e8t", "locality": ["Saint Quentin"], "streetAdress": ["2, Rue de la Chauss\u00e9e Romaine", "\n"], "link": [], "mail": [], "postalCode": ["2100"], "position": [], "type": ["CAARUD"]},
{"tel": ["0323671996"], "name": "Csapa CHA", "locality": ["Saint-Quentin"], "streetAdress": ["10 rue de la chauss\u00e9e romaine", "\n"], "link": [], "mail": [], "postalCode": ["2100"], "position": [], "type": ["PROGRAMME ECHANGE DE SERINGUES"]},
{"tel": ["G\u00e9r\u00e9 par le CMS"], "name": "Distributeur-Echnageur", "locality": ["Ivry sur Seine"], "streetAdress": [], "link": [], "mail": [], "postalCode": ["94200"], "position": [], "type": ["AUTOMATE-DISTRIBOX"]},
{"tel": ["02 97 21 35 20 (g\u00e9r\u00e9 par le Par-a-chute)"], "name": "Distributeur-Echangeur", "locality": ["Lorient"], "streetAdress": [], "link": [], "mail": [], "postalCode": ["56100"], "position": [], "type": ["AUTOMATE-DISTRIBOX"]},
{"tel": ["02 97 21 35 20/06 33 60 77 70"], "name": "Le Pare-A-ChuteS", "locality": ["LORIENT"], "streetAdress": ["10 rue Louis Le Meur", "\n"], "link": ["https://www.facebook.com/caarud56"], "mail": [], "postalCode": ["56100"], "position": [], "type": ["CAARUD"]},
{"tel": ["02 97 21 35 20 / 06 33 60 77 70"], "name": "POMPES (Programmes des Officines du Morbihan Pour l'Echange de Seringues)", "locality": ["Lorient"], "streetAdress": ["Coordonn\u00e9 par le CAARUD \"Le Pare-A-ChuteS\"", "\n10 rue Louis Le Meur"], "link": [], "mail": [], "postalCode": ["56100"], "position": [], "type": ["PROGRAMME \u00c9CHANGE DE SERINGUES EN PHARMACIE"]},
{"tel": ["01 30 73 11 11 (g\u00e9r\u00e9 par le Csapa Dune)"], "name": "Distributeur", "locality": ["Cergy"], "streetAdress": [], "link": [], "mail": [], "postalCode": ["95000"], "position": ["maps.google.com?q=49.03503,2.07949\""], "type": ["AUTOMATE-DISTRIBOX", "Le CSST Dune ", " plus de quarante pharmacies", "Les urgences hospitali\u00e8res de Pontoise "]},
{"tel": ["01 30 73 11 11 (g\u00e9r\u00e9 par le Csapa Dune)"], "name": "Distributeur-Echangeur", "locality": ["Cergy"], "streetAdress": [], "link": [], "mail": [], "postalCode": ["95000"], "position": ["maps.google.com?q=49.03503,2.07949\""], "type": ["AUTOMATE-DISTRIBOX", "Le CSST Dune ", " plus de quarante pharmacies", "Les urgences hospitali\u00e8res de Pontoise "]},
{"tel": ["01 30 73 11 11 (g\u00e9r\u00e9 par le Csapa Dune)"], "name": "Distributeur-Echangeur", "locality": ["Pontoise"], "streetAdress": [], "link": [], "mail": [], "postalCode": ["95000"], "position": ["maps.google.com/?q=49.060673,2.093792\""], "type": ["AUTOMATE-DISTRIBOX", "Le CSST Dune ", " plus de quarante pharmacies", "Les urgences hospitali\u00e8res de Pontoise "]},
{"tel": ["01 30 73 11 11 (g\u00e9r\u00e9 par le CSST Dune)"], "name": "Distributeur-Echangeur", "locality": ["Pontoise"], "streetAdress": [], "link": [], "mail": [], "postalCode": ["95000"], "position": ["maps.google.com?q=49.04631,2.09286\""], "type": ["AUTOMATE-DISTRIBOX", "Le CSST Dune ", " plus de quarante pharmacies", "Les urgences hospitali\u00e8res de Pontoise "]},
{"tel": ["05 63 66 62 48 (g\u00e9r\u00e9 par Epice 82)"], "name": "Distributeur-Echangeur", "locality": ["Montauban"], "streetAdress": [], "link": [], "mail": [], "postalCode": ["82000"], "position": [], "type": ["AUTOMATE-DISTRIBOX"]},
{"tel": ["05 63 66 62 48 (g\u00e9r\u00e9 par Epice 82)"], "name": "Distributeur-Echangeur", "locality": ["Montauban"], "streetAdress": [], "link": [], "mail": [], "postalCode": ["82000"], "position": [], "type": ["AUTOMATE-DISTRIBOX"]},
{"tel": ["05 63 66 62 48 (g\u00e9r\u00e9 par Epice 82)"], "name": "Distributeur-Echangeur", "locality": ["Montauban"], "streetAdress": [], "link": [], "mail": [], "postalCode": ["82000"], "position": [], "type": ["AUTOMATE-DISTRIBOX"]},
{"tel": ["05 63 66 62 48"], "name": "Association EPICE 82 (Drogue et soci\u00e8t\u00e9)", "locality": ["MONTAUBAN"], "streetAdress": ["3, rue Delcass\u00e9", "\n"], "link": ["http://www.epice82.fr"], "mail": [], "postalCode": ["82000"], "position": [], "type": ["CAARUD"]},
{"tel": ["05 94 28 24 83 "], "name": "Relai Drogue Solidarit\u00e9", "locality": ["CAYENNE"], "streetAdress": ["42, rue Rouget de l'Isle", "\n"], "link": [], "mail": [], "postalCode": ["97300"], "position": [], "type": ["CAARUD"]},
{"tel": ["04 79 62 56 24 / 06 84 14 07 07"], "name": "Le P\u00e9lican", "locality": ["CHAMBERY"], "streetAdress": ["60, rue du Cdt Perceval", "\n"], "link": [], "mail": [], "postalCode": ["73000"], "position": [], "type": ["CAARUD"]},
{"tel": ["Pour conna\u00eetre les pharmacies qui participent au PES, contactez la Boutique du P\u00e9lican ( CAARUD) au 06 84 14 07 07 ou par mail : caarud@le-pelican.org."], "name": "PES en pharmacie en Savoie", "locality": ["CHAMBERY"], "streetAdress": ["60, rue du Cdt Perceval", "\n"], "link": [], "mail": [], "postalCode": ["73011"], "position": [], "type": ["PROGRAMME \u00c9CHANGE DE SERINGUES EN PHARMACIE"]},
{"tel": ["Tel : 01 40 09 04 45 (g\u00e9r\u00e9 par Safe)"], "name": "Distributeur-Echangeur", "locality": ["Bondy"], "streetAdress": [], "link": [], "mail": [], "postalCode": ["93140"], "position": ["maps.google.com/?q=48.904024,2.471902\""], "type": ["AUTOMATE-DISTRIBOX"]},
{"tel": ["01 48 50 89 96 / Fax : 01 48 50 89 77 "], "name": "Yucca", "locality": ["Bondy"], "streetAdress": ["31/33 rue Jules Guesde", "\n"], "link": [], "mail": [], "postalCode": ["93140"], "position": [], "type": ["CAARUD"]},
{"tel": ["01 58 46 10 83 (g\u00e9r\u00e9 par le CILDT)"], "name": "Distributeur-Echangeur", "locality": ["Villejuif"], "streetAdress": [], "link": [], "mail": [], "postalCode": ["94800"], "position": [], "type": ["AUTOMATE-DISTRIBOX"]},
{"tel": ["01.58.46.10.83"], "name": "CILDT", "locality": ["Villejuif"], "streetAdress": ["50 avenue Karl Marx", "\n"], "link": ["http://www.cildt.org"], "mail": [], "postalCode": ["94800"], "position": [], "type": ["CAARUD"]},
{"tel": ["01 58 46 10.83 (Pour avoir la liste des pharmacies participantes)"], "name": "PES en pharmacie du Val de Marne", "locality": ["Villejuif"], "streetAdress": ["Programme g\u00e9r\u00e9 par le CILDT", "\n9 rue Guynemer"], "link": [], "mail": [], "postalCode": ["94800"], "position": [], "type": ["PROGRAMME \u00c9CHANGE DE SERINGUES EN PHARMACIE"]},
{"tel": ["09 66 92 87 74"], "name": "Totem et Tabou (AVASTOFA)", "locality": ["La Seyne sur Mer"], "streetAdress": ["3, rue Franchipani", "\n"], "link": [], "mail": [], "postalCode": ["83500"], "position": [], "type": ["CAARUD"]},
{"tel": ["01 45 16 38 53 (g\u00e9r\u00e9 par Visa 94)"], "name": "Distributeur-Echangeur", "locality": ["Fontenay sous Bois"], "streetAdress": [], "link": [], "mail": [], "postalCode": ["94120"], "position": [], "type": ["AUTOMATE-DISTRIBOX"]},
{"tel": ["01 45 16 38 53 (g\u00e9r\u00e9 par Visa 94)"], "name": "Distributeur-Echangeur", "locality": ["Fontenay sous Bois"], "streetAdress": [], "link": [], "mail": [], "postalCode": ["94120"], "position": [], "type": ["AUTOMATE-DISTRIBOX"]},
{"tel": ["01 45 16 38 53 (g\u00e9r\u00e9 par Visa 94)"], "name": "Distributeur", "locality": ["Fontenay sous Bois"], "streetAdress": [], "link": [], "mail": [], "postalCode": ["94120"], "position": [], "type": ["AUTOMATE-DISTRIBOX"]},
{"tel": ["04 94 62 96 23 (g\u00e9r\u00e9 par le Caarud Aides Toulon)"], "name": "Distributeur-Echangeur", "locality": ["Fr\u00e9jus"], "streetAdress": [], "link": [], "mail": [], "postalCode": ["83600"], "position": [], "type": ["AUTOMATE-DISTRIBOX"]},
{"tel": ["02 51 47 78 88 (g\u00e9r\u00e9 par Aides 85)"], "name": "Distributeur-R\u00e9cup\u00e9rateur", "locality": ["La Roche sur Yon"], "streetAdress": [], "link": [], "mail": [], "postalCode": ["85000"], "position": [], "type": ["AUTOMATE-DISTRIBOX"]},
{"tel": ["02 51 47 78 88"], "name": "AIDES Vend\u00e9e", "locality": ["LA ROCHE S/YON"], "streetAdress": ["21, rue des Primev\u00e8res", "\n"], "link": [], "mail": [], "postalCode": ["85000"], "position": [], "type": ["CAARUD"]},
{"tel": ["04 93 16 00 49 (g\u00e9r\u00e9 par le Caarud Entractes)"], "name": "Distributeur-Echangeur", "locality": ["Grasse"], "streetAdress": [], "link": [], "mail": [], "postalCode": ["6130"], "position": [], "type": ["AUTOMATE-DISTRIBOX"]},
{"tel": ["01 46 45 61 46 (g\u00e9r\u00e9 par Chim\u00e8ne)"], "name": "Distributeur", "locality": ["Clamart"], "streetAdress": [], "link": [], "mail": [], "postalCode": ["92140"], "position": [], "type": ["AUTOMATE-DISTRIBOX"]},
{"tel": ["01 46 45 61 46 (g\u00e9r\u00e9 par Chim\u00e8ne)"], "name": "Distributeur-Echangeur", "locality": ["Clamart"], "streetAdress": [], "link": [], "mail": [], "postalCode": ["92140"], "position": [], "type": ["AUTOMATE-DISTRIBOX"]},
{"tel": ["01 46 45 61 46 (g\u00e9r\u00e9 par Chim\u00e8ne)"], "name": "Distributeur", "locality": ["Clamart"], "streetAdress": [], "link": [], "mail": [], "postalCode": ["92140"], "position": [], "type": ["AUTOMATE-DISTRIBOX"]},
{"tel": ["04 68 49 65 35"], "name": "Boutique \"La Maison\" d'AID 11\r\n", "locality": ["NARBONNE"], "streetAdress": ["ancienne route de Cuxac", "\n"], "link": [], "mail": [], "postalCode": ["11100"], "position": [], "type": ["CAARUD"]},
{"tel": ["02 43 49 24 43"], "name": "Aides Laval", "locality": ["Laval"], "streetAdress": ["42 rue No\u00e9mie Hamard", "\n"], "link": [], "mail": [], "postalCode": ["53000"], "position": [], "type": ["CAARUD"]},
{"tel": ["02 32 67 71 20"], "name": "CAARUD 27 (Adissa)", "locality": ["Evreux"], "streetAdress": ["10, rue Chartraine", "\n"], "link": [], "mail": [], "postalCode": ["27000"], "position": [], "type": ["CAARUD"]},
{"tel": ["G\u00e9r\u00e9 par la Mairie de Bobigny"], "name": "Distributeur-Echangeur", "locality": ["Bobigny"], "streetAdress": [], "link": [], "mail": [], "postalCode": ["93000"], "position": ["maps.google.com?q=48.90628,2.44946\""], "type": ["AUTOMATE-DISTRIBOX"]},
{"tel": ["04 68 11 92 96"], "name": "Boutique \"Latitudes Aid 11", "locality": ["CARCASSONNE"], "streetAdress": ["46 rue Pierre Germain", "\n"], "link": [], "mail": [], "postalCode": ["11000"], "position": [], "type": ["CAARUD/CSAPA"]},
{"tel": ["06 84 49 67 87 (g\u00e9r\u00e9 par le Caarud Vers un r\u00e9seau de soin)"], "name": "Distributeur-Echangeur", "locality": ["Blois"], "streetAdress": [], "link": [], "mail": [], "postalCode": ["41000"], "position": [], "type": ["AUTOMATE-DISTRIBOX"]},
{"tel": ["06 84 49 67 87 (g\u00e9r\u00e9 par le Caarud Vers un r\u00e9seau de soin)"], "name": "Distributeur-R\u00e9cup\u00e9rateur", "locality": ["Blois"], "streetAdress": [], "link": [], "mail": [], "postalCode": ["41000"], "position": [], "type": ["AUTOMATE-DISTRIBOX"]},
{"tel": ["02 54 45 46 50 / 06 84 49 67 87"], "name": "Vers un r\u00e9seau de soins", "locality": ["BLOIS"], "streetAdress": ["6, rue de la Mare", "\n"], "link": [], "mail": [], "postalCode": ["41000"], "position": [], "type": ["CAARUD/CSAPA"]},
{"tel": ["04 42 70 54 30"], "name": "Csapa Aubagne", "locality": ["Aubagne"], "streetAdress": ["7 avenue Fallen", "\n"], "link": [], "mail": [], "postalCode": ["13400"], "position": [], "type": ["PROGRAMME ECHANGE DE SERINGUES"]},
{"tel": ["03 26 06 14 80 (g\u00e9r\u00e9 par le Caarud 51)"], "name": "Distributeur-Echangeur", "locality": ["Chalons en Champagne"], "streetAdress": [], "link": [], "mail": [], "postalCode": ["51000"], "position": [], "type": ["AUTOMATE-DISTRIBOX"]},
{"tel": ["09 54 65 46 65"], "name": "16 KAY", "locality": ["CHALON Sur SAONE"], "streetAdress": ["41 av Boucicaut", "\n"], "link": [], "mail": [], "postalCode": ["71100"], "position": [], "type": ["CAARUD"]},
{"tel": ["03 85 48 98 75 / Fax : 03 85 93 16 36"], "name": "Aides 71", "locality": ["Chalon sur Sa\u00f4ne"], "streetAdress": ["19 A rempart Sainte-Marie", "\n"], "link": [], "mail": [], "postalCode": ["71100"], "position": [], "type": ["PROGRAMME ECHANGE DE SERINGUES"]},
{"tel": ["02 54 27 50 20 (g\u00e9r\u00e9 par Alis 36)"], "name": "Distributeur-Echangeur", "locality": ["Chateauroux"], "streetAdress": [], "link": [], "mail": [], "postalCode": ["36000"], "position": ["maps.google.com?q=46.812279,1.700035\""], "type": ["AUTOMATE-DISTRIBOX"]},
{"tel": ["02 54 27 50 20 / fax  : 02 54 60 10 94"], "name": "ALIS 36", "locality": ["CHATEAUROUX Cedex"], "streetAdress": ["10 Rue d'Auvergne", "\nBP 53"], "link": ["http://www.alis36.org"], "mail": [], "postalCode": ["36000"], "position": ["maps.google.com?q=46.805643,1.683132\""], "type": ["CAARUD"]},
{"tel": ["02.96.70.28.54"], "name": "Le Break", "locality": ["SAINT BRIEUC"], "streetAdress": ["18 rue du 71\u00e8me R\u00e9giment d'Infanterie", "\n"], "link": ["http://www.facebook.com/pascaline.pivain"], "mail": [], "postalCode": ["22000"], "position": [], "type": ["CAARUD"]},
{"tel": ["G\u00e9r\u00e9 par la mairie de Saint Ouen"], "name": "Distributeur-Echangeur", "locality": ["Saint Ouen"], "streetAdress": [], "link": [], "mail": [], "postalCode": ["93400"], "position": [], "type": ["AUTOMATE-DISTRIBOX"]},
{"tel": ["G\u00e9r\u00e9 par la mairie de Saint Ouen"], "name": "Distributeur-Echangeur", "locality": ["Saint Ouen"], "streetAdress": [], "link": [], "mail": [], "postalCode": ["93400"], "position": [], "type": ["AUTOMATE-DISTRIBOX"]},
{"tel": ["01 46 45 61 46 (g\u00e9r\u00e9 par Chim\u00e8ne)"], "name": "Distributeur", "locality": ["Meudon Val Foret"], "streetAdress": [], "link": [], "mail": [], "postalCode": ["92190"], "position": [], "type": ["AUTOMATE-DISTRIBOX"]},
{"tel": ["01 46 45 61 46 (g\u00e9r\u00e9 par Chim\u00e8ne)"], "name": "Distributeur", "locality": ["Meudon val Fleury"], "streetAdress": [], "link": [], "mail": [], "postalCode": ["92190"], "position": [], "type": ["AUTOMATE-DISTRIBOX"]},
{"tel": ["05 59 24 82 60"], "name": "A.R.I.T", "locality": ["Bayonne"], "streetAdress": ["8, rue Jacques Laffite", "\n"], "link": [], "mail": [], "postalCode": ["64100"], "position": ["maps.google.com/maps?q=43.49194,-1.472558\""], "type": ["CAARUD"]},
{"tel": ["05 59 55 41 10"], "name": "AIDES - Le SCUD", "locality": ["BAYONNE"], "streetAdress": ["3, avenue Duvergier de Hauranne", "\n"], "link": [], "mail": [], "postalCode": ["64100"], "position": [], "type": ["CAARUD"]},
{"tel": ["05 59 44 31 00"], "name": "BIZIA", "locality": ["BAYONNE"], "streetAdress": ["Rue Paul Pras", "\nBatiment Zabal"], "link": [], "mail": [], "postalCode": ["64100"], "position": [], "type": ["CAARUD/CSAPA"]},
{"tel": ["06 23 73 01 81 ou le 05 31 17 53 85  (g\u00e9r\u00e9 par TRACS 65)"], "name": "Distributeur-R\u00e9cup\u00e9rateur", "locality": ["Tarbes"], "streetAdress": [], "link": [], "mail": [], "postalCode": ["65000"], "position": [], "type": ["AUTOMATE-DISTRIBOX"]},
{"tel": ["05 62 93 66  / 06 23 73 01 81 (Caarud)"], "name": "CAARUD 65 / CSAPA Casa 65", "locality": ["TARBES"], "streetAdress": ["13bis rue Gaston Manent (locaux administratifs)", "\n"], "link": [], "mail": [], "postalCode": ["65000"], "position": [], "type": ["CAARUD"]},
{"tel": ["05 62 34 95 14 / Fax : 05 62 51 31 98"], "name": "Aides Tarbes", "locality": ["Tarbes"], "streetAdress": ["4 Place du March\u00e9 Brauhauban\r\n ", "\n"], "link": [], "mail": [], "postalCode": ["65000"], "position": [], "type": ["PROGRAMME ECHANGE DE SERINGUES"]},
{"tel": ["06.23.73.01.81 ou au 05.31.17.53.85  pour avoir la liste des pharmacies participantes"], "name": "PES en pharmacie des Hautes Pyr\u00e9n\u00e9es", "locality": ["Tarbes"], "streetAdress": ["G\u00e9r\u00e9 par Casa 65", "\n13bis rue Gaston Manent"], "link": [], "mail": [], "postalCode": ["65000"], "position": [], "type": ["PROGRAMME \u00c9CHANGE DE SERINGUES EN PHARMACIE"]},
{"tel": ["03 21 87 01 85"], "name": "Boulogne drogue info", "locality": ["Boulogne-sur-Mer"], "streetAdress": ["58 rue des pipots", "\n"], "link": [], "mail": [], "postalCode": ["62200"], "position": [], "type": ["CAARUD"]},
{"tel": ["04 95 31 61 38"], "name": "ANPAA 2B - A ZIMA", "locality": ["BASTIA"], "streetAdress": ["R\u00e9sidence A Tramuntana", "\nB\u00e2t. A, Route Royale"], "link": [], "mail": [], "postalCode": ["20600"], "position": [], "type": ["CAARUD"]},
{"tel": ["05 45 92 86 77"], "name": "AIDES Charente", "locality": ["ANGOULEME"], "streetAdress": ["12 rue des boissi\u00e8res", "\n"], "link": [], "mail": [], "postalCode": ["16000"], "position": [], "type": ["CAARUD"]},
{"tel": ["05 63 71 24 74 / 06 30 56 02 55"], "name": "TARN Espoir", "locality": ["CASTRES"], "streetAdress": ["179 avenue Albert 1er", "\n"], "link": [], "mail": [], "postalCode": ["81100"], "position": [], "type": ["CAARUD"]},
{"tel": ["05 63 71 24 74 (pour avoir la liste des pharmacies participantes)"], "name": "PES en pharmacie du Tarn Sud (Albi, Castres, ...)", "locality": ["CASTRES"], "streetAdress": ["G\u00e9r\u00e9 par Tarn Espoir", "\n10, rue Anne Veaute"], "link": [], "mail": [], "postalCode": ["81100"], "position": [], "type": ["PROGRAMME \u00c9CHANGE DE SERINGUES EN PHARMACIE"]},
{"tel": ["+33(0)3 27 41 32 32 (g\u00e9r\u00e9 par Aides 59)"], "name": "Distributeur-Echangeur", "locality": ["Valenciennes"], "streetAdress": [], "link": [], "mail": [], "postalCode": ["59300"], "position": [], "type": ["AUTOMATE-DISTRIBOX"]},
{"tel": ["+33(0)3 27 41 32 32 (g\u00e9r\u00e9 par Aides 59)"], "name": "Distributeur-Echangeur", "locality": ["Valenciennes"], "streetAdress": [], "link": [], "mail": [], "postalCode": ["59300"], "position": [], "type": ["AUTOMATE-DISTRIBOX"]},
{"tel": ["+33(0)3 27 41 32 32 (g\u00e9r\u00e9 par le CCPD)"], "name": "Distributeur-Echangeur", "locality": ["Valenciennes"], "streetAdress": [], "link": [], "mail": [], "postalCode": ["59300"], "position": [], "type": ["AUTOMATE-DISTRIBOX"]},
{"tel": ["03 27 30 22 12"], "name": "Aides Nord pas de Calais - Antenne de Valencienne", "locality": ["Valencienne"], "streetAdress": ["38, rue Salle le Conte", "\n"], "link": [], "mail": [], "postalCode": ["59300"], "position": [], "type": ["CAARUD"]},
{"tel": ["0327285738   Port : 0635596592"], "name": "Tarmac", "locality": ["VALENCIENNES"], "streetAdress": ["50 boulevard Froissart", "\n"], "link": ["http://www.le-greid.fr"], "mail": [], "postalCode": ["59300"], "position": [], "type": ["CAARUD"]},
{"tel": ["+33(0)3 27 41 32 32 / Fax : +33(0)3 27 47 28 64"], "name": "CSAPA GREID\r\n\r\n", "locality": ["VALENCIENNES"], "streetAdress": ["42 rue de Mons", "\n"], "link": [], "mail": [], "postalCode": ["59300"], "position": [], "type": ["PROGRAMME ECHANGE DE SERINGUES"]},
{"tel": ["06 77 16 90 12"], "name": "Le fil rouge (APRETO)", "locality": ["ANNEMASSE"], "streetAdress": ["61, rue de Chateau Rouge (locaux administratifs)", "\n"], "link": [], "mail": [], "postalCode": ["74000"], "position": [], "type": ["CAARUD"]},
{"tel": ["01 34 97 97 70"], "name": "Sidaparoles  78", "locality": ["Mantes la Jolie"], "streetAdress": ["26, rue de Gassicourt", "\n"], "link": [], "mail": [], "postalCode": ["78200"], "position": [], "type": ["CAARUD"]},
{"tel": ["04 42 96 44 52 (g\u00e9r\u00e9 par l'association l'ELF)"], "name": "Distributeur-Echangeur", "locality": ["Salon de Provence"], "streetAdress": [], "link": [], "mail": [], "postalCode": ["13300"], "position": [], "type": ["AUTOMATE-DISTRIBOX"]},
{"tel": ["03 84 21 76 02"], "name": "CSAPA Altau Le Relais", "locality": ["Belfort"], "streetAdress": ["10 Bld Anatole France", "\n"], "link": [], "mail": [], "postalCode": ["90000"], "position": [], "type": ["PROGRAMME ECHANGE DE SERINGUES"]},
{"tel": ["03 84 58 17 43"], "name": "Aides", "locality": ["Belfort"], "streetAdress": ["24 bis rue Gaston Defferre\r\n", "\n"], "link": [], "mail": [], "postalCode": ["90000"], "position": [], "type": ["PROGRAMME ECHANGE DE SERINGUES"]},
{"tel": ["06 30 85 92 55 (Pour obtenir la listes des pharmacies participantes)"], "name": "PES en pharmacie des d\u00e9partements  25, 90, 70", "locality": [], "streetAdress": ["Programme g\u00e9r\u00e9 par le R\u00e9seau Toxicomanie Ville H\u00f4pital", "\nBP6", "\r\n70400 H\u00e9ricoourt"], "link": [], "mail": [], "postalCode": ["90000"], "position": [], "type": ["PROGRAMME \u00c9CHANGE DE SERINGUES EN PHARMACIE"]},
{"tel": ["01 40 09 04 45 (g\u00e9r\u00e9 par Safe)"], "name": "Distributeur-Echangeur", "locality": ["Gennevilliers"], "streetAdress": [], "link": [], "mail": [], "postalCode": ["92230"], "position": [], "type": ["AUTOMATE-DISTRIBOX"]},
{"tel": ["01 40 09 04 45 (g\u00e9r\u00e9 par Safe)"], "name": "Distributeur-Echangeur", "locality": ["Gennevilliers"], "streetAdress": [], "link": [], "mail": [], "postalCode": ["92230"], "position": ["maps.google.com?q=48.93497,2.29703\""], "type": ["AUTOMATE-DISTRIBOX"]},
{"tel": ["01 40 09 04 45 (g\u00e9r\u00e9 par Safe)"], "name": "Distributeur-Echangeur", "locality": ["Gennevilliers"], "streetAdress": [], "link": [], "mail": [], "postalCode": ["92230"], "position": ["maps.google.com?q=48.92461,2.29454\""], "type": ["AUTOMATE-DISTRIBOX"]},
{"tel": ["03 44 27 46 84 (g\u00e9r\u00e9 par Sato Picardie)"], "name": "Distributeur-R\u00e9cup\u00e9rateur", "locality": ["COMPIEGNE"], "streetAdress": [], "link": [], "mail": [], "postalCode": ["60200"], "position": [], "type": ["AUTOMATE-DISTRIBOX"]},
{"tel": ["03 44 40 08 77 / Fax : 03 44 90 09 34"], "name": "CSAPA COMPIEGNE ", "locality": ["COMPIEGNE"], "streetAdress": ["8 Rue de la Sous Pr\u00e9fecture", "\n"], "link": [], "mail": [], "postalCode": ["60200"], "position": [], "type": ["CSAPA"]},
{"tel": ["02 33 10 03 03"], "name": "CSAPA Presqu'\u00efle", "locality": ["Cherbourg-Octeville"], "streetAdress": ["7-9, rue des Moulins", "\n"], "link": [], "mail": [], "postalCode": ["50100"], "position": [], "type": ["PROGRAMME ECHANGE DE SERINGUES"]},
{"tel": ["04 70 05 56 29"], "name": "La Passerelle", "locality": ["MONTLUCON"], "streetAdress": ["16 rue du Ch\u00e2telet", "\n"], "link": [], "mail": [], "postalCode": ["3100"], "position": [], "type": ["CAARUD/CSAPA"]},
{"tel": ["04 70 05 56 29 (Pour avoir la listes des pharmacies participantes)"], "name": "PES en pharmacie \u00e0 Montlu\u00e7on", "locality": ["Monlu\u00e7on"], "streetAdress": ["Programme g\u00e9r\u00e9 par le CAARUD/CSST La Passerelle", "\n"], "link": [], "mail": [], "postalCode": ["3100"], "position": [], "type": ["PROGRAMME \u00c9CHANGE DE SERINGUES EN PHARMACIE"]},
{"tel": ["02 37 30 32 40 (g\u00e9r\u00e9 par VIH/VHC 28)"], "name": "Distributeur-Echangeur", "locality": ["Chartres"], "streetAdress": [], "link": [], "mail": [], "postalCode": ["28000"], "position": [], "type": ["AUTOMATE-DISTRIBOX"]},
{"tel": ["02 37 21 00 72"], "name": "Aides 28", "locality": ["Chartres"], "streetAdress": ["19 bis rue des Bouchers", "\n"], "link": [], "mail": [], "postalCode": ["28000"], "position": [], "type": ["PROGRAMME ECHANGE DE SERINGUES"]},
{"tel": ["O1 64 10 06 24 (g\u00e9r\u00e9 par le Caarud Interl'UD 77)"], "name": "Distributeur-Echangeur", "locality": ["Melun"], "streetAdress": [], "link": [], "mail": [], "postalCode": ["77000"], "position": ["maps.google.com/?q=48.538964,2.666698\""], "type": ["AUTOMATE-DISTRIBOX"]},
{"tel": ["01 64 10 06 24/06 77 81 50 50"], "name": "Interl'UD 77", "locality": ["Melun"], "streetAdress": ["14, route de Montereau", "\n"], "link": ["http://https://www.facebook.com/caarud.interlud?fref=ts"], "mail": [], "postalCode": ["77000"], "position": [], "type": ["CAARUD"]},
{"tel": ["04 92 53 43 93 / fax : 04 92 51 64 41"], "name": "Aides", "locality": ["Gap"], "streetAdress": ["2, rue de Champolion", "\n"], "link": [], "mail": [], "postalCode": ["5000"], "position": [], "type": ["PROGRAMME ECHANGE DE SERINGUES"]},
{"tel": ["04 66 30 55 58"], "name": "Aides Nimes - Antenne \u00e0 Al\u00e8s", "locality": ["Al\u00e8s"], "streetAdress": ["6, rue Saint Vincent", "\n"], "link": [], "mail": [], "postalCode": ["30100"], "position": [], "type": ["CAARUD"]},
{"tel": ["04 66 91 08 75"], "name": "LOGOS - Antenne \u00e0 Ales", "locality": ["ALES"], "streetAdress": ["19 avenue Jules GUESDE ", "\n"], "link": [], "mail": [], "postalCode": ["30100"], "position": [], "type": ["CSAPA"]},
{"tel": ["01 40 09 04 45 (g\u00e9r\u00e9 par Safe)"], "name": "Distributeur-Echangeur", "locality": ["Bagneux"], "streetAdress": [], "link": [], "mail": [], "postalCode": ["92220"], "position": [], "type": ["AUTOMATE-DISTRIBOX"]},
{"tel": ["01 40 09 04 45 (g\u00e9r\u00e9 par Safe)"], "name": "Distributeur-Echangeur", "locality": ["Bagneux"], "streetAdress": [], "link": [], "mail": [], "postalCode": ["92220"], "position": ["maps.google.com?q=48.79349,2.32051\""], "type": ["AUTOMATE-DISTRIBOX"]},
{"tel": ["01 40 09 04 45 (g\u00e9r\u00e9 par Safe)"], "name": "Distributeur-Echangeur", "locality": ["Bagneux"], "streetAdress": [], "link": [], "mail": [], "postalCode": ["92220"], "position": [], "type": ["AUTOMATE-DISTRIBOX"]},
{"tel": ["06 32 08 13 98"], "name": "CSAPA Clinique Libert\u00e9", "locality": ["Bagneux"], "streetAdress": ["10, rue de la Libert\u00e9", "\n"], "link": [], "mail": [], "postalCode": ["92220"], "position": [], "type": ["PROGRAMME ECHANGE DE SERINGUES"]},
{"tel": ["05 94 27 94 72"], "name": "CSAPA de ST Laurent", "locality": ["ST Laurent du Maroni"], "streetAdress": ["35 rue Justin Catay\u00e9e", "\n"], "link": [], "mail": [], "postalCode": ["97320"], "position": [], "type": ["CSAPA"]},
{"tel": ["01 69 06 06 06 (g\u00e9r\u00e9 par le Caarud Fressonne)"], "name": "Distributeur-Echangeur", "locality": ["Massy"], "streetAdress": [], "link": [], "mail": [], "postalCode": ["91300"], "position": ["maps.google.com/maps?q=48.731712,2.288858\""], "type": ["AUTOMATE-DISTRIBOX"]},
{"tel": ["01 69 06 06 06 (g\u00e9r\u00e9 par le Caarud Fressonne)"], "name": "Distributeur-Echangeur", "locality": ["Massy"], "streetAdress": [], "link": [], "mail": [], "postalCode": ["91300"], "position": [], "type": ["AUTOMATE-DISTRIBOX"]},
{"tel": ["01 69 06 06 06 (g\u00e9r\u00e9 par le Caarud Fressonne)"], "name": "Distributeur-Echangeur", "locality": ["Corbeil Essones"], "streetAdress": [], "link": [], "mail": [], "postalCode": ["91100"], "position": ["maps.google.com/?q=48.6123,2.4747\""], "type": ["AUTOMATE-DISTRIBOX"]},
{"tel": ["01 69 06 06 06 (g\u00e9r\u00e9 par le Caarud Fressonne)"], "name": "Distributeur-Echangeur", "locality": ["Corbeil Essonnes"], "streetAdress": [], "link": [], "mail": [], "postalCode": ["91100"], "position": ["maps.google.com/?q=48.60715,2.4693\""], "type": ["AUTOMATE-DISTRIBOX"]},
{"tel": ["03 86 59 09 48"], "name": "AIDES", "locality": ["NEVERS"], "streetAdress": ["9 rue Gambetta", "\n"], "link": [], "mail": [], "postalCode": ["58000"], "position": [], "type": ["CAARUD"]},
{"tel": ["03 86 33 76 41 / 06 76 62 44 18 / Fax :03 86 33 76 54"], "name": "CAARUD89", "locality": ["Auxerre"], "streetAdress": ["8, rue du Colonel Rozanoff", "\n"], "link": ["http://facebook.com/caarud.auxerre"], "mail": [], "postalCode": ["89000"], "position": [], "type": ["CAARUD"]},
{"tel": ["03 86 33 76 41 ou 06 76 62 44 18 (Pour avoir la liste des pharmacies participantes)"], "name": "PES en pharmacie d'Auxerre", "locality": ["Auxerre"], "streetAdress": ["Le programme d'\u00e9change de seringues est g\u00e9r\u00e9 par le CAARUD89", "\n8, rue du Colonel Rozanoff"], "link": [], "mail": [], "postalCode": ["89000"], "position": [], "type": ["PROGRAMME \u00c9CHANGE DE SERINGUES EN PHARMACIE"]},
{"tel": ["G\u00e9r\u00e9 par la mairie de la Courneuve"], "name": "Distributeur", "locality": ["La Courneuve"], "streetAdress": [], "link": [], "mail": [], "postalCode": ["93120"], "position": [], "type": ["AUTOMATE-DISTRIBOX"]},
{"tel": ["G\u00e9r\u00e9 par la mairie de la Courneuve"], "name": "Distributeur", "locality": ["La Courneuve"], "streetAdress": [], "link": [], "mail": [], "postalCode": ["93120"], "position": [], "type": ["AUTOMATE-DISTRIBOX"]},
{"tel": ["06 76 92 32 51 / 03 91 84 00 80"], "name": "Atypik", "locality": ["LENS"], "streetAdress": ["80 rue Beugnet", "\n"], "link": ["http://www.addicto-chlens.fr/caarud.html"], "mail": [], "postalCode": ["62300"], "position": [], "type": ["CAARUD"]},
{"tel": ["06 76 92 32 51 / 03 21 69 14 94 pour avoir la liste des pharmacies participantes"], "name": "PEMIO", "locality": ["LENS"], "streetAdress": ["G\u00e9r\u00e9 par le Caarud Atypik", "\nrue Casimir Beugnet"], "link": [], "mail": [], "postalCode": ["62300"], "position": [], "type": ["PROGRAMME \u00c9CHANGE DE SERINGUES EN PHARMACIE"]},
{"tel": ["06 31 05 67 96"], "name": "Tempo Mont\u00e9limar", "locality": ["Mont\u00e9limar"], "streetAdress": ["15 avenue Kennedy", "\n"], "link": [], "mail": [], "postalCode": ["26200"], "position": [], "type": ["CAARUD"]},
{"tel": ["G\u00e9r\u00e9 par la Mairie de Stains"], "name": "Distributeur", "locality": ["Stains"], "streetAdress": [], "link": [], "mail": [], "postalCode": ["93240"], "position": [], "type": ["AUTOMATE-DISTRIBOX"]},
{"tel": ["G\u00e9r\u00e9 par la Mairie de Stains"], "name": "Distributeur", "locality": ["Stains"], "streetAdress": [], "link": [], "mail": [], "postalCode": ["93240"], "position": [], "type": ["AUTOMATE-DISTRIBOX"]},
{"tel": ["03 44 27 46 84 (g\u00e9r\u00e9 par Sato Picardie)"], "name": "Distributeur-R\u00e9cup\u00e9rateur", "locality": ["Creil"], "streetAdress": [], "link": [], "mail": [], "postalCode": ["60100"], "position": [], "type": ["AUTOMATE-DISTRIBOX"]},
{"tel": ["03 44 27 46 84 / 06 89 40 31 50 / Fax\u00a0: 03 44 24 14 56"], "name": "SATO Picardie", "locality": ["MONTATAIRE"], "streetAdress": ["1 Rue des D\u00e9port\u00e9s", "\n"], "link": [], "mail": [], "postalCode": ["60100"], "position": [], "type": ["CAARUD"]},
{"tel": ["03 44 66 40 70 / Fax : 03 44 66 40 76"], "name": "CSAPA CREIL ", "locality": ["CREIL"], "streetAdress": ["42-44 Rue du Mar\u00e9chal De Lattre de Tassigny", "\n"], "link": [], "mail": [], "postalCode": ["60100"], "position": [], "type": ["CSAPA"]},
{"tel": ["06 42 67 13 46"], "name": "Tempo Romans", "locality": ["Romans"], "streetAdress": ["42 rue Jacquemart", "\n"], "link": [], "mail": [], "postalCode": ["26100"], "position": [], "type": ["CAARUD"]},
{"tel": ["05 53 48 15 80"], "name": "Service d'Aide et Soins pour Toxicomannes \"la verri\u00e8re\" (A.S.P.P.]", "locality": ["AGEN"], "streetAdress": ["8, rue du 4 septembre", "\n"], "link": [], "mail": [], "postalCode": ["47000"], "position": [], "type": ["CAARUD"]},
{"tel": ["05 53 48 15 80 (Pour avoir la liste des pharmacies participantes)"], "name": "PES en pharmacie du Lot et Garonne", "locality": ["Agen"], "streetAdress": ["Programme g\u00e9r\u00e9 par le SAST La VERRIERE", "\n8 rue du IV septembre"], "link": [], "mail": [], "postalCode": ["47000"], "position": [], "type": ["PROGRAMME \u00c9CHANGE DE SERINGUES EN PHARMACIE"]},
{"tel": ["03 29 35 62 09"], "name": "AVSEA (en cours de d'agr\u00e9ment Caarud)", "locality": ["Epinal"], "streetAdress": ["33, rue Adolphe Thiers (locaux administratifs)", "\n"], "link": [], "mail": [], "postalCode": ["88000"], "position": [], "type": ["CAARUD"]},
{"tel": ["03 29 35 68 73"], "name": "Aides 88", "locality": ["Epinal"], "streetAdress": ["3 rue du Chapitre\r\n ", "\n"], "link": [], "mail": [], "postalCode": ["88000"], "position": [], "type": ["PROGRAMME ECHANGE DE SERINGUES"]},
{"tel": ["03 27 62 34 44 (g\u00e9r\u00e9 par le Csapa Etapes)"], "name": "Distributeur-Echangeur", "locality": ["Maubeuge"], "streetAdress": [], "link": [], "mail": [], "postalCode": ["59600"], "position": [], "type": ["AUTOMATE-DISTRIBOX"]},
{"tel": ["01 45 16 38 53 (g\u00e9r\u00e9 par Visa 94)"], "name": "Distributeur-Echangeur", "locality": ["Le Perreux sur Marne"], "streetAdress": [], "link": [], "mail": [], "postalCode": ["94170"], "position": [], "type": ["AUTOMATE-DISTRIBOX"]},
{"tel": ["01 43 60 33 22 (g\u00e9r\u00e9 par Proses)"], "name": "Distributeur-Echangeur", "locality": ["Bagnolet"], "streetAdress": [], "link": [], "mail": [], "postalCode": ["93170"], "position": [], "type": ["AUTOMATE-DISTRIBOX"]},
{"tel": ["01 43 60 33 22 (g\u00e9r\u00e9 par Proses)"], "name": "Distributeur-Echangeur", "locality": ["Bagnolet"], "streetAdress": [], "link": [], "mail": [], "postalCode": ["93170"], "position": [], "type": ["AUTOMATE-DISTRIBOX"]},
{"tel": ["02.35.50.59.70"], "name": "Le Cap (association ONM)", "locality": ["Dieppe"], "streetAdress": ["10 avenue G\u00e9n\u00e9ral Leclerc (quartier du Pollet)", "\n"], "link": [], "mail": [], "postalCode": ["76200"], "position": [], "type": ["CAARUD"]},
{"tel": ["01 40 09 04 45 (g\u00e9r\u00e9 par Safe)"], "name": "Distributeur-Echangeur", "locality": ["Chatenay-Malabry"], "streetAdress": [], "link": [], "mail": [], "postalCode": ["92290"], "position": ["maps.google.com?q=48.76839,2.25178\""], "type": ["AUTOMATE-DISTRIBOX"]},
{"tel": ["02 37 30 32 40 (g\u00e9r\u00e9 par VIH/VHC 28)"], "name": "Distributeur-Echangeur", "locality": ["Dreux"], "streetAdress": [], "link": [], "mail": [], "postalCode": ["28100"], "position": [], "type": ["AUTOMATE-DISTRIBOX"]},
{"tel": ["01 46 45 61 46 (g\u00e9r\u00e9 par Chim\u00e8ne)"], "name": "Distributeur", "locality": ["Malakoff"], "streetAdress": [], "link": [], "mail": [], "postalCode": ["92240"], "position": [], "type": ["AUTOMATE-DISTRIBOX"]},
{"tel": ["01 46 45 61 46 (g\u00e9r\u00e9 par Chim\u00e8ne)"], "name": "Distributeur", "locality": ["Malakoff"], "streetAdress": [], "link": [], "mail": [], "postalCode": ["92240"], "position": [], "type": ["AUTOMATE-DISTRIBOX"]},
{"tel": ["01 46 45 61 46 (g\u00e9r\u00e9 par Chim\u00e8ne)"], "name": "Distributeur", "locality": ["Malakoff"], "streetAdress": [], "link": [], "mail": [], "postalCode": ["92240"], "position": [], "type": ["AUTOMATE-DISTRIBOX"]},
{"tel": ["01 69 06 06 06 (g\u00e9r\u00e9 par le Caarud Fressonne)"], "name": "Distributeur-Echangeur", "locality": ["Athis Mons"], "streetAdress": [], "link": [], "mail": [], "postalCode": ["91200"], "position": ["maps.google.com/?q=48.70759,2.39702\""], "type": ["AUTOMATE-DISTRIBOX"]},
{"tel": ["01 69 06 06 06 (g\u00e9r\u00e9 par le Caarud Fressonne)"], "name": "Distributeur-Echangeur", "locality": ["Athis Mons"], "streetAdress": [], "link": [], "mail": [], "postalCode": ["91200"], "position": ["maps.google.com/?q=48.69876,2.37273\""], "type": ["AUTOMATE-DISTRIBOX"]},
{"tel": ["01 69 06 06 06 (g\u00e9r\u00e9 par le Caarud Fressonne)"], "name": "Distributeur-Echangeur", "locality": ["Palaiseau"], "streetAdress": [], "link": [], "mail": [], "postalCode": ["91120"], "position": ["maps.google.com/?q=48.7177674,2.2467825\""], "type": ["AUTOMATE-DISTRIBOX"]},
{"tel": ["0158461083 (g\u00e9r\u00e9 par le CILDT)"], "name": "Distributeur-Echangeur", "locality": ["Thiais"], "streetAdress": [], "link": [], "mail": [], "postalCode": ["94320"], "position": [], "type": ["AUTOMATE-DISTRIBOX"]},
{"tel": ["01 58 46 10 83 (g\u00e9r\u00e9 par le CILDT)"], "name": "Distributeur-Echangeur", "locality": ["L'Hay les roses"], "streetAdress": [], "link": [], "mail": [], "postalCode": ["94240"], "position": [], "type": ["AUTOMATE-DISTRIBOX"]},
{"tel": ["05 53 46 63 83"], "name": "CEID", "locality": ["PERIGUEUX"], "streetAdress": ["8 rue Kleber", "\n"], "link": [], "mail": [], "postalCode": ["24000"], "position": [], "type": ["CAARUD"]},
{"tel": ["05 53 46 63 83 pour avoir la listes de pharmacies participantes"], "name": "PES en pharmacie de la Dordogne", "locality": ["PERIGUEUX"], "streetAdress": ["G\u00e9r\u00e9 par le Caarud Ceid P\u00e9rigueux", "\n8 rue Kleber"], "link": [], "mail": [], "postalCode": ["24000"], "position": [], "type": ["PROGRAMME \u00c9CHANGE DE SERINGUES EN PHARMACIE"]},
{"tel": ["04 90 86 80 80 (g\u00e9r\u00e9 par Aides 84)"], "name": "Distributeur-Echangeur", "locality": ["Carpentras"], "streetAdress": [], "link": [], "mail": [], "postalCode": ["84200"], "position": [], "type": ["AUTOMATE-DISTRIBOX"]},
{"tel": ["02 35 70 41 20 (g\u00e9r\u00e9 par la Boussole)"], "name": "Distributeur", "locality": ["Sotteville les Rouens"], "streetAdress": [], "link": [], "mail": [], "postalCode": ["76300"], "position": [], "type": ["AUTOMATE-DISTRIBOX"]},
{"tel": ["02 35 70 41 20 (g\u00e9r\u00e9 par la Boussole)"], "name": "Distributeur", "locality": ["Sotteville les Rouen"], "streetAdress": [], "link": [], "mail": [], "postalCode": ["76300"], "position": [], "type": ["AUTOMATE-DISTRIBOX"]},
{"tel": ["04 71 63 82 50"], "name": "Association APT", "locality": ["Aurillac"], "streetAdress": ["55, rue de l'\u00e9galit\u00e9", "\n"], "link": [], "mail": [], "postalCode": ["15000"], "position": [], "type": ["CAARUD"]},
{"tel": ["04 71 48 28 47"], "name": "Aides Cantal", "locality": ["Aurillac"], "streetAdress": ["15 bis rue Jean-Baptiste Rames", "\n"], "link": [], "mail": [], "postalCode": ["15000"], "position": [], "type": ["PROGRAMME ECHANGE DE SERINGUES"]},
{"tel": ["03 23 75 74 38 (g\u00e9r\u00e9 par ARTS - Point Ecoute Drogues)"], "name": "Distributeur-Echangeur", "locality": ["Soissons"], "streetAdress": [], "link": [], "mail": [], "postalCode": ["2200"], "position": [], "type": ["AUTOMATE-DISTRIBOX"]},
{"tel": ["03 23 75 73 00 ou 07 87 00 40 73"], "name": "Sato - Antenne Soissons", "locality": ["SOISSONS"], "streetAdress": ["42 rue des Cordeliers", "\n"], "link": [], "mail": [], "postalCode": ["2200"], "position": [], "type": ["CAARUD"]},
{"tel": ["03 23 75 74 38 / Fax: 03 23 75 74 35 "], "name": "Point Ecoute Drogues", "locality": ["Soissons"], "streetAdress": ["46, av du G\u00e9n\u00e9ral de Gaulle  ", "\n"], "link": ["http://www.point-ecoute-drogues.fr/"], "mail": [], "postalCode": ["2200"], "position": [], "type": ["PROGRAMME ECHANGE DE SERINGUES"]},
{"tel": ["02 41 38 15 15"], "name": "Alia Site Saumur", "locality": ["Saumur"], "streetAdress": ["150 rue des pr\u00e8s", "\n"], "link": [], "mail": [], "postalCode": ["49400"], "position": [], "type": ["CAARUD/CSAPA"]},
{"tel": ["02 35 70 41 20 (g\u00e9r\u00e9 par la Boussole)"], "name": "Distributeur", "locality": ["St Etienne du Rouvray"], "streetAdress": [], "link": [], "mail": [], "postalCode": ["76800"], "position": [], "type": ["AUTOMATE-DISTRIBOX"]},
{"tel": ["02 33 32 00 11 (g\u00e9r\u00e9 par Drog'Aide 61)"], "name": "Distributeur-Echangeur", "locality": ["Alen\u00e7on"], "streetAdress": [], "link": [], "mail": [], "postalCode": ["61000"], "position": [], "type": ["AUTOMATE-DISTRIBOX"]},
{"tel": ["02 33 32 00 11"], "name": "Drog'Aide 61", "locality": ["ALENCON"], "streetAdress": ["38 Place du Bas de Montsort", "\n"], "link": [], "mail": [], "postalCode": ["61000"], "position": [], "type": ["CAARUD"]},
{"tel": ["01 45 16 38 53 (g\u00e9r\u00e9 par Visa 94)"], "name": "Distributeur", "locality": ["Villiers sur Marne"], "streetAdress": [], "link": [], "mail": [], "postalCode": ["94350"], "position": [], "type": ["AUTOMATE-DISTRIBOX"]},
{"tel": ["05 58 75 92 04 (g\u00e9r\u00e9 par le Caarud/Csst La Source)"], "name": "Distributeur-Echangeur", "locality": ["Mont de Marsan"], "streetAdress": [], "link": [], "mail": [], "postalCode": ["40000"], "position": [], "type": ["AUTOMATE-DISTRIBOX"]},
{"tel": ["05 58 75 92 04"], "name": "La Source", "locality": ["MONT DE MARSAN"], "streetAdress": ["160, avenue Georges Cl\u00e9menceau", "\n"], "link": [], "mail": [], "postalCode": ["40000"], "position": [], "type": ["CAARUD/CSAPA"]},
{"tel": ["01 69 06 06 06 (g\u00e9r\u00e9 par le Caarud Fressonne)"], "name": "Distributeur-Echangeur", "locality": ["Evry"], "streetAdress": [], "link": [], "mail": [], "postalCode": ["91000"], "position": ["maps.google.com/?q=48.62317,2.45035\""], "type": ["AUTOMATE-DISTRIBOX"]},
{"tel": ["01 69 06 06 06 (g\u00e9r\u00e9 par le Caarud Fressonne)"], "name": "Distributeur-Echangeur", "locality": ["Evry"], "streetAdress": [], "link": [], "mail": [], "postalCode": ["91000"], "position": ["maps.google.com/?q=48.62569,2.42785\""], "type": ["AUTOMATE-DISTRIBOX"]},
{"tel": ["05 53 74 20 49"], "name": "CEID", "locality": ["BERGERAC"], "streetAdress": ["10 rue St Georges ", "\n"], "link": [], "mail": [], "postalCode": ["24100"], "position": [], "type": ["CAARUD"]},
{"tel": ["03 81 91 09 22"], "name": "CSAPA Altau Le Relais", "locality": ["Montb\u00e9liard"], "streetAdress": ["12 avenue Foch", "\n"], "link": [], "mail": [], "postalCode": ["25200"], "position": [], "type": ["PROGRAMME ECHANGE DE SERINGUES"]},
{"tel": ["01 58 46 10 83 (g\u00e9r\u00e9 par le CILDT)"], "name": "Distributeur-Echangeur", "locality": ["Le Kremlin Bicetre"], "streetAdress": [], "link": [], "mail": [], "postalCode": ["94270"], "position": [], "type": ["AUTOMATE-DISTRIBOX"]},
{"tel": ["01 58 46 10 83 (g\u00e9r\u00e9 par le CILDT)"], "name": "Distributeur-Echangeur", "locality": ["Cachan"], "streetAdress": [], "link": [], "mail": [], "postalCode": ["94230"], "position": [], "type": ["AUTOMATE-DISTRIBOX"]},
{"tel": ["03 84 82 83 85"], "name": "Centre d'addictologie Aristide Briand", "locality": ["Dole"], "streetAdress": ["9 avenue Aristide Briand", "\n"], "link": [], "mail": [], "postalCode": ["39100"], "position": [], "type": ["PROGRAMME ECHANGE DE SERINGUES"]},
{"tel": ["01 42 11 81 05 (g\u00e9r\u00e9 par le CILDT)"], "name": "Distributeur-Echangeur", "locality": ["Fresne"], "streetAdress": [], "link": [], "mail": [], "postalCode": ["94260"], "position": [], "type": ["AUTOMATE-DISTRIBOX"]},
{"tel": ["01 40 09 04 45 (g\u00e9r\u00e9 par Safe)"], "name": "Distributeur-Echangeur", "locality": ["Villeneuve la Garenne"], "streetAdress": [], "link": [], "mail": [], "postalCode": ["92390"], "position": ["maps.google.com?q=48.9345,2.32693\""], "type": ["AUTOMATE-DISTRIBOX"]},
{"tel": ["02 32 62 89 20"], "name": "Adissa Vernon", "locality": ["Vernon"], "streetAdress": ["15, rue Andr\u00e9 Bourdet", "\n"], "link": [], "mail": [], "postalCode": ["27200"], "position": [], "type": ["PROGRAMME ECHANGE DE SERINGUES"]},
{"tel": ["05 65 81 17 62 (g\u00e9r\u00e9 par Epice)"], "name": "Distributeur-Echangeur", "locality": ["Rodez"], "streetAdress": [], "link": [], "mail": [], "postalCode": ["12000"], "position": [], "type": ["AUTOMATE-DISTRIBOX"]},
{"tel": [], "name": "EPICE - Antenne \u00e0 Rodez", "locality": ["Rodez"], "streetAdress": ["1 rue du Gaz, au RdC des locaux de l'UDAF", "\n"], "link": [], "mail": [], "postalCode": ["12000"], "position": [], "type": ["CAARUD"]},
{"tel": ["05 65 67 11 50"], "name": "ANPAA 12", "locality": ["Rodez"], "streetAdress": ["8 avenue de Paris", "\n"], "link": [], "mail": [], "postalCode": ["12000"], "position": [], "type": ["PROGRAMME ECHANGE DE SERINGUES"]},
{"tel": ["03 25 02 82 82 (g\u00e9r\u00e9 par L'Escale)"], "name": "Distributeur-Echangeur", "locality": ["Chaumont"], "streetAdress": [], "link": [], "mail": [], "postalCode": ["52000"], "position": [], "type": ["AUTOMATE-DISTRIBOX"]},
{"tel": ["03 25 02 82 82 (Ligne 24h/24)"], "name": "Le Phare", "locality": ["Chaumont"], "streetAdress": ["44, rue Pierre Curie", "\n"], "link": [], "mail": [], "postalCode": ["52000"], "position": ["maps.google.com?q=48.112992,5.133233\""], "type": ["CAARUD"]},
{"tel": ["01 40 09 04 45 (g\u00e9r\u00e9 par Safe)"], "name": "Distributeur-Echangeur", "locality": ["Fontenay aux Roses"], "streetAdress": [], "link": [], "mail": [], "postalCode": ["92260"], "position": ["maps.google.com?q=48.78627,2.3027\""], "type": ["AUTOMATE-DISTRIBOX"]},
{"tel": ["02 31 86 82 82 (g\u00e9r\u00e9 par SID'ACCUEIL BASSE NORMANDIE )"], "name": "Distributeur-Echangeur", "locality": ["Herouville Saint Clair"], "streetAdress": [], "link": [], "mail": [], "postalCode": ["14200"], "position": [], "type": ["AUTOMATE-DISTRIBOX"]},
{"tel": ["04 92 31 12 67 (g\u00e9r\u00e9 par Point Alpha)"], "name": "Distributeur-R\u00e9cup\u00e9rateur", "locality": ["Manosque"], "streetAdress": [], "link": [], "mail": [], "postalCode": ["4100"], "position": [], "type": ["AUTOMATE-DISTRIBOX"]},
{"tel": [], "name": "Distributeur-Echangeur", "locality": ["Lisieux"], "streetAdress": [], "link": [], "mail": [], "postalCode": ["14100"], "position": [], "type": ["AUTOMATE-DISTRIBOX"]},
{"tel": ["02 31 31 44 58 "], "name": "Maison des addictions", "locality": ["Lisieux"], "streetAdress": ["1 rue Paul Banaston ", "\n"], "link": [], "mail": [], "postalCode": ["14100"], "position": [], "type": ["PROGRAMME ECHANGE DE SERINGUES"]},
{"tel": ["01 64 62 07 73 / 06 64 24 75 64 / 06 62 73 77 79"], "name": "Emergences 77 Nord", "locality": ["Torcy"], "streetAdress": ["LCR Jules Raimu", "\nall\u00e9e Raimu"], "link": [], "mail": [], "postalCode": ["77200"], "position": [], "type": ["CAARUD"]},
{"tel": ["06 82 37 22 10 (g\u00e9r\u00e9 par Arevho - Addiction R\u00e9seau Ville H\u00f4pital)"], "name": "Distributeur-Echangeur", "locality": ["Millau"], "streetAdress": [], "link": [], "mail": [], "postalCode": ["12100"], "position": [], "type": ["AUTOMATE-DISTRIBOX"]},
{"tel": [], "name": "Poubelle r\u00e9cup\u00e9ratrice", "locality": ["Grande Synthe"], "streetAdress": [], "link": [], "mail": [], "postalCode": ["59760"], "position": [], "type": ["AUTOMATE-DISTRIBOX"]},
{"tel": ["01 64 10 06 24 (g\u00e9r\u00e9 par le Caarud Interl'UD 77)"], "name": "Distributeur-\u00c9changeur", "locality": ["Combs-la-Ville"], "streetAdress": [], "link": [], "mail": [], "postalCode": ["77380"], "position": [], "type": ["AUTOMATE-DISTRIBOX"]},
{"tel": ["G\u00e9r\u00e9 par la Mairie d'Orly"], "name": "Distributeur-Echangeur", "locality": ["Orly"], "streetAdress": [], "link": [], "mail": [], "postalCode": ["94310"], "position": [], "type": ["AUTOMATE-DISTRIBOX"]},
{"tel": ["05 58 75 92 04 (g\u00e9r\u00e9 par le Caarud/Csapa La Source)"], "name": "Distributeur-Echangeur", "locality": ["Dax"], "streetAdress": [], "link": [], "mail": [], "postalCode": ["40100"], "position": [], "type": ["AUTOMATE-DISTRIBOX"]},
{"tel": ["+33(0)3 27 41 32 32 (g\u00e9r\u00e9 par Aides 59)"], "name": "Distributeur-Echangeur", "locality": ["Denain"], "streetAdress": [], "link": [], "mail": [], "postalCode": ["59220"], "position": [], "type": ["AUTOMATE-DISTRIBOX"]},
{"tel": ["05 65 53 67 54 (g\u00e9r\u00e9 par le CAARUD 46)"], "name": "Distributeur-Echangeur", "locality": ["Cahors"], "streetAdress": [], "link": [], "mail": [], "postalCode": ["46000"], "position": [], "type": ["AUTOMATE-DISTRIBOX"]},
{"tel": ["05 65 53 67 54"], "name": "CAARUD 46 \r\n", "locality": ["Cahors"], "streetAdress": ["377 rue du 7\u00e8me r\u00e9giment d'infanterie ", "\n"], "link": [], "mail": [], "postalCode": ["46000"], "position": [], "type": ["CAARUD"]},
{"tel": [], "name": "Distributeur-Echangeur", "locality": ["Lormont"], "streetAdress": [], "link": [], "mail": [], "postalCode": ["33310"], "position": [], "type": ["AUTOMATE-DISTRIBOX"]},
{"tel": ["03 24 26 68 95 (G\u00e9r\u00e9 par le CAARUD Yoz)"], "name": "Distributeur-Echangeur", "locality": ["Sedan"], "streetAdress": [], "link": [], "mail": [], "postalCode": ["8200"], "position": [], "type": ["AUTOMATE-DISTRIBOX"]},
{"tel": ["04 70 20 11 42"], "name": "CSAPA Moulins", "locality": ["Moulins"], "streetAdress": ["10 rue Georges Lucien P\u00e9richon", "\n"], "link": [], "mail": [], "postalCode": ["3000"], "position": [], "type": ["PROGRAMME ECHANGE DE SERINGUES"]},
{"tel": ["0158461083  (g\u00e9r\u00e9 par le CILDT)"], "name": "Distributeur-Echangeur", "locality": ["Chevilly Larue"], "streetAdress": [], "link": [], "mail": [], "postalCode": ["94550"], "position": [], "type": ["AUTOMATE-DISTRIBOX"]},
{"tel": ["01 34 97 97 70"], "name": "Sidaparoles  78", "locality": ["Mantes la Jolie"], "streetAdress": ["26, rue de Gassicourt", "\n"], "link": [], "mail": [], "postalCode": ["78200"], "position": [], "type": ["CAARUD"]},
{"tel": ["04 71 04 94 47"], "name": "Espace Toxicomanie La plage", "locality": ["LE PUY EN VELAY"], "streetAdress": ["2, rue des Tanneries", "\n"], "link": [], "mail": [], "postalCode": ["43000"], "position": [], "type": ["CAARUD"]},
{"tel": ["01 58 46 10 83 (g\u00e9r\u00e9 par le CILDT)"], "name": "Distributeur-Echangeur", "locality": ["Arcueil"], "streetAdress": [], "link": [], "mail": [], "postalCode": ["94110"], "position": [], "type": ["AUTOMATE-DISTRIBOX"]},
{"tel": ["01 45 16 38 53 (g\u00e9r\u00e9 par Visa 94)"], "name": "Distribox", "locality": ["Le Plessis-Tr\u00e9vise"], "streetAdress": [], "link": [], "mail": [], "postalCode": ["94420"], "position": [], "type": ["AUTOMATE-DISTRIBOX"]},
{"tel": ["04 66 89 65 98"], "name": "Riposte", "locality": ["Bagnols sur C\u00e8ze"], "streetAdress": ["2, Rue Juiverie", "\n"], "link": [], "mail": [], "postalCode": ["30200"], "position": [], "type": ["CAARUD"]},
{"tel": ["Tel : 03 20 95 12 59 (g\u00e9r\u00e9 par le Caarud Oxyg\u00e8ne)"], "name": "Distributeur-R\u00e9cup\u00e9rateur", "locality": ["Ronchin"], "streetAdress": [], "link": [], "mail": [], "postalCode": ["59790"], "position": ["maps.google.com/?q=50.59868,3.09471\""], "type": ["AUTOMATE-DISTRIBOX"]}]