[{"tel": ["01 53 28 08 89 / Fax : 01 42 58 09 46"], "name": "Coordination Toxicomanies\r\n", "locality": ["PARIS"], "streetAdress": ["87, rue Marcadet", "\n"], "link": [], "mail": [], "postalCode": ["75018"], "position": [], "type": ["CAARUD"]},
{"tel": ["01 53 09 99 40"], "name": "Espoir goutte d'Or", "locality": ["PARIS"], "streetAdress": ["13, rue Saint Luc (La Chapelle ou Ch\u00e2teau Rouge ou Barb\u00e8s Rochechouart)", "\n"], "link": ["http://www.ego.asso.fr"], "mail": [], "postalCode": ["75018"], "position": ["maps.google.com/?q=48.886442,2.353933\""], "type": ["CAARUD"]},
{"tel": ["01 40 09 04 45 (g\u00e9r\u00e9 par Safe)"], "name": "Distributeur-Echangeur", "locality": ["Paris"], "streetAdress": [], "link": [], "mail": [], "postalCode": ["75001"], "position": ["maps.google.com?q=48.86348,2.34716\""], "type": ["AUTOMATE-DISTRIBOX"]},
{"tel": ["01 40 09 04 45 (g\u00e9r\u00e9 par Safe)"], "name": "Distributeur-Echangeur", "locality": ["Paris"], "streetAdress": [], "link": [], "mail": [], "postalCode": ["75002"], "position": ["maps.google.com?q=48.8646,2.35119\""], "type": ["AUTOMATE-DISTRIBOX"]},
{"tel": ["01 40 09 04 45 (g\u00e9r\u00e9 par Safe)"], "name": "Distributeur", "locality": ["Paris"], "streetAdress": [], "link": [], "mail": [], "postalCode": ["75003"], "position": ["maps.google.com?q=48.86746,2.35331\""], "type": ["AUTOMATE-DISTRIBOX"]},
{"tel": ["01 40 09 04 45 (g\u00e9r\u00e9 par Safe)"], "name": "Distributeur", "locality": ["Paris"], "streetAdress": [], "link": [], "mail": [], "postalCode": ["75006"], "position": ["maps.google.com?q=48.84362,2.3286\""], "type": ["AUTOMATE-DISTRIBOX"]},
{"tel": ["01 40 09 04 45 (g\u00e9r\u00e9 par Safe)"], "name": "Distributeur", "locality": ["Paris"], "streetAdress": [], "link": [], "mail": [], "postalCode": ["75007"], "position": ["maps.google.com?q=48.84736,2.31846\""], "type": ["AUTOMATE-DISTRIBOX"]},
{"tel": ["01 40 09 04 45 (g\u00e9r\u00e9 par Safe)"], "name": "Distributeur-Echangeur", "locality": ["Paris"], "streetAdress": [], "link": [], "mail": [], "postalCode": ["75009"], "position": ["maps.google.com?q=48.87691,2.3267\""], "type": ["AUTOMATE-DISTRIBOX"]},
{"tel": ["01 40 09 04 45 (g\u00e9r\u00e9 par Safe)"], "name": "Distributeur-Echangeur", "locality": ["Paris"], "streetAdress": [], "link": [], "mail": [], "postalCode": ["75010"], "position": ["maps.google.com?q=48.88242,2.35458\""], "type": ["AUTOMATE-DISTRIBOX"]},
{"tel": ["01 40 09 04 45 (g\u00e9r\u00e9 par Safe)"], "name": "Distributeur-Echangeur", "locality": ["Paris"], "streetAdress": [], "link": [], "mail": [], "postalCode": ["75010"], "position": ["maps.google.com?q=48.86885,2.35597\""], "type": ["AUTOMATE-DISTRIBOX"]},
{"tel": ["01 40 09 04 45 (g\u00e9r\u00e9 par Safe)"], "name": "Distributeur-Echangeur", "locality": ["Paris"], "streetAdress": [], "link": [], "mail": [], "postalCode": ["75010"], "position": ["maps.google.com?q=48.88396,2.35234\""], "type": ["AUTOMATE-DISTRIBOX"]},
{"tel": ["01 40 09 04 45 (g\u00e9r\u00e9 par Safe)"], "name": "Distributeur-Echangeur", "locality": ["Paris"], "streetAdress": [], "link": [], "mail": [], "postalCode": ["75010"], "position": ["maps.google.com?q=48.87754,2.34982\""], "type": ["AUTOMATE-DISTRIBOX"]},
{"tel": ["01 40 09 04 45 (g\u00e9r\u00e9 par Safe)"], "name": "Distributeur-Echangeur", "locality": ["Paris"], "streetAdress": [], "link": [], "mail": [], "postalCode": ["75010"], "position": ["maps.google.com?q=48.87765,2.36144\""], "type": ["AUTOMATE-DISTRIBOX"]},
{"tel": ["01 40 09 04 45 (g\u00e9r\u00e9 par Safe)"], "name": "Distributeur-Echangeur", "locality": ["Paris"], "streetAdress": [], "link": [], "mail": [], "postalCode": ["75011"], "position": ["maps.google.com?q=48.85423,2.36897\""], "type": ["AUTOMATE-DISTRIBOX"]},
{"tel": ["01 40 09 04 45 (g\u00e9r\u00e9 par Safe)"], "name": "Distributeur", "locality": ["Paris"], "streetAdress": [], "link": [], "mail": [], "postalCode": ["75012"], "position": ["maps.google.com/maps?q=48.849363,2.389181\""], "type": ["AUTOMATE-DISTRIBOX"]},
{"tel": ["01 40 09 04 45 (g\u00e9r\u00e9 par Safe)"], "name": "Distributeur", "locality": ["Paris"], "streetAdress": [], "link": [], "mail": [], "postalCode": ["75012"], "position": ["maps.google.com/maps?q=48.850709,2.375441\""], "type": ["AUTOMATE-DISTRIBOX"]},
{"tel": ["01 40 09 04 45 (g\u00e9r\u00e9 par Safe)"], "name": "Distributeur-Echangeur", "locality": ["Paris"], "streetAdress": [], "link": [], "mail": [], "postalCode": ["75012"], "position": ["maps.google.com/maps?q=48.845846,2.373833\""], "type": ["AUTOMATE-DISTRIBOX"]},
{"tel": ["01 40 09 04 45 (g\u00e9r\u00e9 par Safe)"], "name": "Distributeur-Echangeur", "locality": ["Paris"], "streetAdress": [], "link": [], "mail": [], "postalCode": ["75013"], "position": [], "type": ["AUTOMATE-DISTRIBOX"]},
{"tel": ["01 40 09 04 45 (g\u00e9r\u00e9 par Safe)"], "name": "Distributeur-Echangeur", "locality": ["Paris"], "streetAdress": [], "link": [], "mail": [], "postalCode": ["75013"], "position": ["maps.google.com?q=48.83204,2.35518\""], "type": ["AUTOMATE-DISTRIBOX"]},
{"tel": ["01 40 09 04 45 (g\u00e9r\u00e9 par Safe)"], "name": "Distributeur-Echangeur", "locality": ["Paris"], "streetAdress": [], "link": [], "mail": [], "postalCode": ["75014"], "position": ["maps.google.com/maps?q=48.828015,2.305739\""], "type": ["AUTOMATE-DISTRIBOX"]},
{"tel": ["01 40 09 04 45 (g\u00e9r\u00e9 par Safe)"], "name": "Distributeur-Echangeur", "locality": ["Paris"], "streetAdress": [], "link": [], "mail": [], "postalCode": ["75014"], "position": ["maps.google.com?q=48.84362,2.3286\""], "type": ["AUTOMATE-DISTRIBOX"]},
{"tel": ["01 40 09 04 45 (g\u00e9r\u00e9 par Safe)"], "name": "Distributeur-Echangeur", "locality": ["Paris"], "streetAdress": [], "link": [], "mail": [], "postalCode": ["75015"], "position": ["maps.google.com?q=48.84048,2.2954\""], "type": ["AUTOMATE-DISTRIBOX"]},
{"tel": ["01 40 09 04 45 (g\u00e9r\u00e9 par Safe)"], "name": "Distributeur-Echangeur", "locality": ["Paris"], "streetAdress": [], "link": [], "mail": [], "postalCode": ["75015"], "position": ["maps.google.com?q=48.84622,2.27746\""], "type": ["AUTOMATE-DISTRIBOX"]},
{"tel": ["01 40 09 04 45 (g\u00e9r\u00e9 par Safe)"], "name": "Distributeur-Echangeur", "locality": ["Paris"], "streetAdress": [], "link": [], "mail": [], "postalCode": ["75016"], "position": ["maps.google.com?q=48.85287,2.28039\""], "type": ["AUTOMATE-DISTRIBOX"]},
{"tel": ["01 40 09 04 45 (g\u00e9r\u00e9 par Safe)"], "name": "Distributeur-Echangeur", "locality": ["Paris"], "streetAdress": [], "link": [], "mail": [], "postalCode": ["75018"], "position": ["maps.google.com?q=48.89499,2.35906\""], "type": ["AUTOMATE-DISTRIBOX"]},
{"tel": ["01 40 09 04 45 (g\u00e9r\u00e9 par Safe)"], "name": "Distributeur-Echangeur", "locality": ["Paris"], "streetAdress": [], "link": [], "mail": [], "postalCode": ["75018"], "position": ["maps.google.com?q=48.89776,2.33061\""], "type": ["AUTOMATE-DISTRIBOX"]},
{"tel": ["01 40 09 04 45 (g\u00e9r\u00e9 par Safe)"], "name": "Distributeur", "locality": ["Paris"], "streetAdress": [], "link": [], "mail": [], "postalCode": ["75018"], "position": ["maps.google.com?q=48.88962,2.3404\""], "type": ["AUTOMATE-DISTRIBOX"]},
{"tel": ["01 40 09 04 45 (g\u00e9r\u00e9 par Safe)"], "name": "Distributeur-Echangeur", "locality": ["Paris"], "streetAdress": [], "link": [], "mail": [], "postalCode": ["75018"], "position": ["maps.google.com?q=48.89304,2.32789\""], "type": ["AUTOMATE-DISTRIBOX"]},
{"tel": ["01 40 09 04 45 (g\u00e9r\u00e9 par Safe)"], "name": "Distributeur", "locality": ["Paris"], "streetAdress": [], "link": [], "mail": [], "postalCode": ["75018"], "position": ["maps.google.com?q=48.89513,2.35914\""], "type": ["AUTOMATE-DISTRIBOX"]},
{"tel": ["01 40 09 04 45 (g\u00e9r\u00e9 par Safe)"], "name": "Distributeur-Echangeur", "locality": ["Paris"], "streetAdress": [], "link": [], "mail": [], "postalCode": ["75019"], "position": ["maps.google.com?q=48.87869,2.37018\""], "type": ["AUTOMATE-DISTRIBOX"]},
{"tel": ["01 40 09 04 45 (g\u00e9r\u00e9 par Safe)"], "name": "Distributeur", "locality": ["Paris"], "streetAdress": [], "link": [], "mail": [], "postalCode": ["75019"], "position": ["maps.google.com?q=48.89068,2.37613\""], "type": ["AUTOMATE-DISTRIBOX"]},
{"tel": ["01 40 09 04 45 (g\u00e9r\u00e9 par Safe)"], "name": "Distributeur-Echangeur", "locality": ["Paris"], "streetAdress": [], "link": [], "mail": [], "postalCode": ["75020"], "position": ["maps.google.com?q=48.84814,2.40101\""], "type": ["AUTOMATE-DISTRIBOX"]},
{"tel": ["01 40 09 04 45 (g\u00e9r\u00e9 par Safe)"], "name": "Distributeur", "locality": ["Paris"], "streetAdress": [], "link": [], "mail": [], "postalCode": ["75020"], "position": ["maps.google.com?q=48.87366,2.38473\""], "type": ["AUTOMATE-DISTRIBOX"]},
{"tel": ["01 40 09 04 45 (g\u00e9r\u00e9 par Safe)"], "name": "Distributeur-Echangeur", "locality": ["Paris"], "streetAdress": [], "link": [], "mail": [], "postalCode": ["75020"], "position": [], "type": ["AUTOMATE-DISTRIBOX"]},
{"tel": ["01 40 09 04 45 (g\u00e9r\u00e9 par Safe)"], "name": "Distributeur-Echangeur", "locality": ["Paris"], "streetAdress": [], "link": [], "mail": [], "postalCode": ["75020"], "position": ["maps.google.com/maps?q=48.864568,2.405789\""], "type": ["AUTOMATE-DISTRIBOX"]},
{"tel": ["01 40 09 04 45 (g\u00e9r\u00e9 par Safe)"], "name": "Distributeur-Echangeur", "locality": ["Paris"], "streetAdress": [], "link": [], "mail": [], "postalCode": ["75020"], "position": ["maps.google.com?q=48.86029,2.38854\""], "type": ["AUTOMATE-DISTRIBOX"]},
{"tel": ["01 53 38 96 20"], "name": "Beaurepaire", "locality": ["Paris"], "streetAdress": ["9, rue Beaurepaire (m\u00e9tro R\u00e9publique)", "\n"], "link": [], "mail": [], "postalCode": ["75010"], "position": ["maps.google.com/?q=48.870022,2.363473\""], "type": ["CAARUD"]},
{"tel": ["01 46 07 94 84"], "name": "CAARUD 18", "locality": ["Paris"], "streetAdress": ["58 Boulevard Ney (M\u00e9tro Porte de la Chapelle)", "\n"], "link": [], "mail": [], "postalCode": ["75018"], "position": ["maps.google.com/?q=48.889035,2.360633\""], "type": ["CAARUD"]},
{"tel": ["01 46 07 87 17"], "name": "CAARUD 18 - Espace Femmes", "locality": ["Paris"], "streetAdress": ["Reserv\u00e9 \u00e0 l'accueil des femmes", "\n84, rue Philippe de Girard"], "link": [], "mail": [], "postalCode": ["75018"], "position": [], "type": ["CAARUD"]},
{"tel": ["01 42 45 16 43"], "name": "Bor\u00e9al / La terrasse", "locality": ["Paris"], "streetAdress": ["64 ter, rue de Meaux (m\u00e9tro Jaures)", "\n"], "link": [], "mail": [], "postalCode": ["75019"], "position": [], "type": ["CAARUD"]},
{"tel": ["01 40 03 90 90 / Fax : 01 40 03 95 25"], "name": "Kal\u00e9idoscope", "locality": ["Paris"], "streetAdress": ["7, rue Carolus Duran", "\n"], "link": ["http://www.groupe-sos.org/centres/28-Kaleidoscope"], "mail": [], "postalCode": ["75019"], "position": [], "type": ["CAARUD"]},
{"tel": ["01 53 24 12 00 / 06 85 03 56 32"], "name": "CAARUD Paris Les Halles", "locality": ["Paris"], "streetAdress": ["36, rue Dussoubs - 75002 Paris (M\u00e9tro Sentier ou R\u00e9aumur-S\u00e9bastopol)", "\n"], "link": [], "mail": [], "postalCode": ["75019"], "position": [], "type": ["CAARUD"]},
{"tel": ["01 42 64 23 21"], "name": "Step", "locality": ["Paris"], "streetAdress": ["56, bd de la Chapelle (M\u00e9tro : Gare du Nord ou La Chapelle)", "\n"], "link": [], "mail": [], "postalCode": ["75018"], "position": ["maps.google.com/?q=48.884355,2.355899\""], "type": ["PROGRAMME ECHANGE DE SERINGUES"]},
{"tel": ["01 77 72 22 00 (num\u00e9ro du lieu fixe)\r\n/ 06 15 02 65 12 (portable du bus)"], "name": "Ga\u00efa", "locality": ["Paris"], "streetAdress": ["62 bis, avenue Parmentier (M\u00e9tro Parmentier)", "\n"], "link": ["http://gaia-paris.fr"], "mail": [], "postalCode": ["75010"], "position": [], "type": ["CAARUD/CSAPA"]},
{"tel": ["01 43 27 83 90"], "name": "Nova Dona", "locality": ["Paris"], "streetAdress": ["\n82 avenue Denfert-Rochereau"], "link": [], "mail": [], "postalCode": ["75014"], "position": [], "type": ["CAARUD/CSAPA"]}]